{"type": "FeatureCollection", "note": "Geometry, centroids and WorldPop counts for health zones named in INSP sitreps but not yet mapped in drc-ebola-tracker.", "source": "INRB-UMIE/BDBV2026-Data build/drc_health_zones.geojson (archived DRC_Health_zones.shp); population from WorldPop", "features": [{"type": "Feature", "properties": {"zone": "Alimbongo", "province": "Nord-Kivu", "lat": -0.3497, "lon": 28.7381, "population": 296821}, "geometry": {"type": "Polygon", "coordinates": [[[29.3866, -0.42382], [29.38534, -0.4363], [29.38047, -0.44713], [29.3732, -0.45101], [29.36357, -0.47833], [29.35941, -0.47964], [29.35722, -0.47535], [29.34099, -0.47331], [29.31877, -0.48331], [29.31817, -0.49945], [29.33027, -0.51571], [29.34059, -0.51801], [29.32708, -0.52654], [29.31883, -0.52691], [29.31022, -0.52114], [29.30054, -0.52771], [29.28025, -0.53017], [29.27472, -0.5125], [29.26788, -0.50657], [29.25971, -0.50458], [29.25398, -0.51144], [29.25184, -0.50286], [29.23884, -0.50026], [29.22988, -0.50579], [29.22906, -0.49983], [29.23207, -0.49588], [29.22775, -0.49096], [29.21972, -0.49481], [29.21832, -0.49078], [29.21368, -0.48982], [29.20488, -0.50631], [29.1909, -0.50811], [29.18792, -0.52368], [29.19066, -0.5431], [29.19579, -0.54863], [29.17976, -0.54683], [29.17324, -0.53923], [29.16608, -0.54165], [29.16256, -0.5383], [29.16057, -0.5317], [29.16524, -0.52932], [29.16129, -0.52709], [29.15965, -0.52031], [29.16264, -0.50709], [29.15351, -0.49328], [29.14549, -0.49195], [29.1393, -0.49536], [29.13536, -0.49227], [29.12208, -0.49208], [29.11958, -0.48958], [29.12042, -0.48292], [29.10962, -0.46639], [29.102, -0.46463], [29.10152, -0.47674], [29.08366, -0.49227], [29.08577, -0.50039], [29.07511, -0.50932], [29.07781, -0.51747], [29.06888, -0.52867], [29.06853, -0.53702], [29.06395, -0.53922], [29.04907, -0.52627], [29.04973, -0.5189], [29.04447, -0.51325], [29.03162, -0.51641], [29.0236, -0.50971], [29.01781, -0.5121], [29.0018, -0.50595], [28.99291, -0.5072], [28.97184, -0.49206], [28.94811, -0.48322], [28.93694, -0.49448], [28.93141, -0.4942], [28.92373, -0.50084], [28.90058, -0.50926], [28.89706, -0.50831], [28.89747, -0.50225], [28.8854, -0.48775], [28.87415, -0.48991], [28.8636, -0.50058], [28.86366, -0.50912], [28.87192, -0.52163], [28.87721, -0.53815], [28.8697, -0.5597], [28.85737, -0.56864], [28.84781, -0.57184], [28.83717, -0.56845], [28.82014, -0.57305], [28.81649, -0.57019], [28.78895, -0.56897], [28.77875, -0.57458], [28.76637, -0.57607], [28.73499, -0.54429], [28.73021, -0.54429], [28.714, -0.53323], [28.7135, -0.5432], [28.70752, -0.55295], [28.69059, -0.55403], [28.68878, -0.55704], [28.68512, -0.55479], [28.67203, -0.56405], [28.66842, -0.56832], [28.6718, -0.56946], [28.66877, -0.57509], [28.65429, -0.58983], [28.65113, -0.60078], [28.6422, -0.60879], [28.64229, -0.61287], [28.63215, -0.62018], [28.63429, -0.62237], [28.61667, -0.62047], [28.61611, -0.62526], [28.61147, -0.62567], [28.60904, -0.63026], [28.59372, -0.6331], [28.59049, -0.62743], [28.59206, -0.61165], [28.59831, -0.58176], [28.60339, -0.5755], [28.60134, -0.56726], [28.60492, -0.56041], [28.60361, -0.55297], [28.61558, -0.51779], [28.61482, -0.50527], [28.6113, -0.50317], [28.60569, -0.50851], [28.58649, -0.50451], [28.58815, -0.50093], [28.58333, -0.49935], [28.58005, -0.49355], [28.57576, -0.49697], [28.56653, -0.48466], [28.56017, -0.48628], [28.55715, -0.48097], [28.55467, -0.48164], [28.55746, -0.47528], [28.54785, -0.47287], [28.54439, -0.4688], [28.54766, -0.46417], [28.53787, -0.45893], [28.53866, -0.45615], [28.52747, -0.45649], [28.5256, -0.45177], [28.51211, -0.45578], [28.50951, -0.4489], [28.5011, -0.45381], [28.49683, -0.4528], [28.49454, -0.45137], [28.49995, -0.44667], [28.49623, -0.44145], [28.48653, -0.449], [28.47495, -0.44994], [28.4698, -0.44494], [28.47067, -0.44851], [28.46477, -0.45148], [28.46368, -0.44881], [28.46097, -0.44994], [28.46176, -0.44152], [28.4583, -0.43735], [28.46101, -0.43498], [28.4527, -0.42758], [28.45278, -0.4237], [28.44845, -0.42483], [28.44503, -0.41803], [28.43793, -0.42137], [28.43098, -0.41822], [28.4268, -0.41055], [28.42834, -0.40446], [28.42278, -0.40634], [28.41842, -0.40416], [28.41895, -0.39397], [28.40669, -0.39581], [28.40301, -0.39946], [28.40154, -0.39127], [28.39256, -0.39306], [28.38952, -0.39698], [28.38343, -0.39799], [28.37959, -0.40724], [28.37335, -0.41025], [28.36741, -0.40551], [28.36245, -0.40559], [28.35734, -0.39856], [28.35399, -0.39961], [28.35426, -0.39559], [28.35054, -0.39754], [28.34975, -0.39303], [28.35441, -0.39134], [28.34302, -0.38912], [28.34208, -0.38416], [28.33877, -0.38345], [28.34065, -0.37146], [28.33569, -0.3645], [28.3334, -0.36315], [28.32784, -0.36722], [28.32608, -0.36109], [28.32318, -0.36429], [28.32211, -0.35632], [28.3177, -0.35599], [28.31399, -0.34697], [28.31718, -0.3405], [28.31352, -0.33287], [28.30805, -0.33253], [28.30533, -0.32684], [28.30033, -0.32964], [28.29063, -0.31787], [28.29015, -0.31322], [28.28524, -0.31425], [28.28597, -0.31766], [28.27438, -0.31408], [28.26498, -0.31886], [28.25485, -0.30425], [28.2514, -0.30662], [28.24014, -0.29222], [28.23036, -0.29508], [28.22574, -0.28453], [28.2272, -0.28064], [28.22067, -0.26944], [28.21692, -0.26698], [28.21287, -0.27115], [28.20122, -0.26852], [28.20368, -0.26442], [28.20087, -0.26075], [28.20492, -0.25634], [28.20357, -0.24939], [28.19483, -0.2507], [28.19022, -0.24519], [28.19052, -0.24008], [28.18345, -0.23694], [28.18108, -0.24059], [28.16723, -0.24474], [28.1622, -0.2347], [28.16669, -0.2325], [28.1642, -0.22252], [28.16786, -0.20261], [28.16021, -0.18585], [28.15538, -0.18477], [28.14545, -0.18925], [28.13502, -0.20066], [28.13406, -0.19562], [28.13727, -0.19156], [28.13285, -0.19039], [28.13362, -0.18345], [28.1298, -0.17798], [28.13522, -0.17275], [28.12729, -0.16682], [28.12965, -0.16245], [28.14205, -0.17107], [28.15032, -0.16355], [28.15752, -0.16652], [28.16175, -0.16198], [28.17017, -0.16055], [28.17138, -0.15015], [28.19935, -0.14092], [28.20724, -0.14733], [28.21549, -0.14667], [28.21743, -0.14255], [28.22063, -0.14945], [28.23284, -0.14577], [28.24453, -0.15178], [28.25188, -0.14853], [28.25657, -0.15134], [28.25625, -0.14606], [28.26302, -0.14105], [28.26485, -0.14427], [28.2701, -0.14036], [28.27515, -0.14279], [28.27433, -0.13683], [28.28665, -0.13419], [28.29454, -0.12525], [28.29339, -0.12194], [28.29964, -0.12277], [28.29914, -0.11979], [28.30933, -0.1135], [28.3118, -0.11681], [28.31755, -0.11466], [28.31492, -0.10258], [28.31886, -0.10093], [28.32445, -0.10473], [28.33694, -0.09894], [28.34088, -0.09067], [28.34861, -0.09745], [28.36143, -0.10043], [28.36504, -0.10953], [28.368, -0.09894], [28.37868, -0.0958], [28.3806, -0.09213], [28.39495, -0.09332], [28.39626, -0.08868], [28.39939, -0.08901], [28.40218, -0.09365], [28.41828, -0.09844], [28.41894, -0.0915], [28.42601, -0.09332], [28.43133, -0.08974], [28.4341, -0.09284], [28.44118, -0.08974], [28.43995, -0.08571], [28.45368, -0.07979], [28.4584, -0.08858], [28.46855, -0.08819], [28.46886, -0.09103], [28.46538, -0.09183], [28.47057, -0.09492], [28.46902, -0.10132], [28.47967, -0.1107], [28.4752, -0.11437], [28.47609, -0.11989], [28.46571, -0.12312], [28.46059, -0.12867], [28.4641, -0.13955], [28.47437, -0.14566], [28.48214, -0.15912], [28.48481, -0.15926], [28.48123, -0.16439], [28.48242, -0.17807], [28.49161, -0.17871], [28.49927, -0.18722], [28.4998, -0.19201], [28.50461, -0.18248], [28.50846, -0.183], [28.51232, -0.17602], [28.51604, -0.17522], [28.53451, -0.17611], [28.53814, -0.17835], [28.53556, -0.18188], [28.53998, -0.18512], [28.54785, -0.18013], [28.5466, -0.17422], [28.55873, -0.17016], [28.56336, -0.17392], [28.5645, -0.16749], [28.56879, -0.16854], [28.56614, -0.16569], [28.57262, -0.16466], [28.57257, -0.15848], [28.58099, -0.15882], [28.583, -0.15609], [28.59465, -0.16329], [28.6154, -0.16086], [28.62062, -0.15512], [28.62534, -0.15491], [28.6322, -0.15973], [28.6329, -0.15311], [28.6291, -0.14643], [28.63311, -0.14591], [28.63947, -0.14815], [28.6418, -0.15264], [28.6453, -0.15143], [28.64339, -0.15665], [28.64635, -0.16477], [28.67365, -0.19217], [28.67762, -0.18608], [28.68413, -0.19047], [28.68507, -0.19482], [28.69387, -0.19217], [28.69387, -0.19583], [28.7009, -0.19524], [28.70421, -0.19813], [28.70543, -0.19586], [28.70632, -0.20079], [28.71172, -0.20322], [28.71801, -0.20148], [28.72127, -0.20805], [28.7258, -0.20477], [28.73114, -0.20788], [28.73303, -0.21717], [28.73828, -0.21628], [28.74613, -0.22575], [28.74812, -0.22282], [28.76306, -0.22801], [28.76179, -0.22126], [28.76614, -0.21434], [28.77058, -0.21377], [28.76852, -0.20923], [28.77695, -0.2125], [28.77567, -0.21651], [28.77944, -0.22037], [28.78604, -0.22075], [28.78722, -0.21829], [28.78329, -0.21533], [28.78723, -0.21352], [28.8074, -0.21966], [28.80763, -0.22736], [28.82216, -0.2241], [28.82309, -0.23235], [28.83036, -0.23642], [28.82574, -0.24748], [28.82735, -0.27638], [28.83142, -0.2801], [28.83339, -0.29663], [28.84518, -0.32968], [28.83453, -0.34912], [28.83805, -0.36848], [28.84282, -0.3636], [28.84316, -0.35823], [28.83999, -0.35687], [28.84284, -0.35703], [28.84176, -0.354], [28.84541, -0.35744], [28.84727, -0.35475], [28.84497, -0.35015], [28.8527, -0.35454], [28.85797, -0.3416], [28.86399, -0.34444], [28.87991, -0.34448], [28.88355, -0.34861], [28.89114, -0.34843], [28.89905, -0.3538], [28.90138, -0.35182], [28.91936, -0.3638], [28.93251, -0.36829], [28.94181, -0.36597], [28.94765, -0.36911], [28.96116, -0.36961], [28.96353, -0.34736], [28.98979, -0.32157], [28.99962, -0.30688], [29.00533, -0.30869], [29.0137, -0.30379], [29.03026, -0.31363], [29.05078, -0.31567], [29.0481, -0.31282], [29.05194, -0.29809], [29.04918, -0.29552], [29.04933, -0.28756], [29.06022, -0.28241], [29.06455, -0.2845], [29.07103, -0.27874], [29.08444, -0.27934], [29.08643, -0.28268], [29.10026, -0.27186], [29.09229, -0.25137], [29.09429, -0.24683], [29.10136, -0.24386], [29.11136, -0.25118], [29.1145, -0.25164], [29.11707, -0.24751], [29.12228, -0.25018], [29.1297, -0.2383], [29.13362, -0.24078], [29.13983, -0.23669], [29.15068, -0.23927], [29.16056, -0.23465], [29.16078, -0.22999], [29.17605, -0.21835], [29.18108, -0.22182], [29.18726, -0.23924], [29.1973, -0.24048], [29.20239, -0.24688], [29.20517, -0.24227], [29.21061, -0.24241], [29.22972, -0.26131], [29.23863, -0.25737], [29.25067, -0.26759], [29.24213, -0.27357], [29.23482, -0.27242], [29.23138, -0.28594], [29.23708, -0.28229], [29.25355, -0.28613], [29.2472, -0.30166], [29.24938, -0.30403], [29.25413, -0.30158], [29.2594, -0.31071], [29.25865, -0.31882], [29.26382, -0.33126], [29.26337, -0.33456], [29.25981, -0.33529], [29.26195, -0.34144], [29.25934, -0.34977], [29.25418, -0.35486], [29.27115, -0.36103], [29.27893, -0.34755], [29.28479, -0.34386], [29.29088, -0.3489], [29.29161, -0.3553], [29.30523, -0.36069], [29.30101, -0.35042], [29.31877, -0.34537], [29.32603, -0.35003], [29.32492, -0.36491], [29.31899, -0.36981], [29.3219, -0.37522], [29.32787, -0.37787], [29.3222, -0.39057], [29.32364, -0.39353], [29.33576, -0.39489], [29.33836, -0.40758], [29.34099, -0.40475], [29.35092, -0.41103], [29.35275, -0.40945], [29.35477, -0.41764], [29.36942, -0.42099], [29.37316, -0.42717], [29.3866, -0.42382]]]}}, {"type": "Feature", "properties": {"zone": "Bafwasende", "province": "Tshopo", "lat": 0.87255, "lon": 26.88463, "population": 132264}, "geometry": {"type": "Polygon", "coordinates": [[[28.02747, 0.63304], [28.01769, 0.63598], [28.00939, 0.63323], [28.00167, 0.62099], [27.98954, 0.61205], [27.97693, 0.61348], [27.96879, 0.62115], [27.95456, 0.62146], [27.92315, 0.59876], [27.89297, 0.56187], [27.85498, 0.5574], [27.79075, 0.5288], [27.7849, 0.53364], [27.76115, 0.53997], [27.74247, 0.55233], [27.72979, 0.566], [27.72939, 0.57433], [27.73642, 0.58627], [27.75663, 0.58137], [27.76661, 0.58589], [27.77049, 0.59395], [27.77049, 0.60487], [27.77862, 0.61677], [27.7748, 0.63334], [27.76653, 0.64874], [27.76831, 0.66006], [27.75939, 0.67084], [27.75856, 0.68835], [27.75321, 0.69562], [27.75167, 0.71456], [27.75431, 0.72244], [27.72512, 0.74033], [27.72182, 0.73917], [27.71729, 0.72894], [27.70624, 0.7311], [27.69612, 0.73756], [27.70873, 0.78234], [27.69678, 0.80457], [27.68036, 0.81242], [27.67578, 0.82347], [27.65296, 0.83088], [27.63304, 0.82476], [27.63133, 0.83287], [27.6217, 0.83399], [27.61311, 0.84016], [27.60571, 0.83807], [27.59504, 0.84078], [27.58268, 0.84626], [27.57463, 0.8546], [27.56377, 0.84428], [27.54382, 0.83835], [27.535, 0.85316], [27.5246, 0.85603], [27.50908, 0.86931], [27.48853, 0.85884], [27.47718, 0.8585], [27.47037, 0.86704], [27.47119, 0.87502], [27.48468, 0.88989], [27.48625, 0.89881], [27.48472, 0.90392], [27.47714, 0.90968], [27.46885, 0.90731], [27.45723, 0.88111], [27.4472, 0.881], [27.43854, 0.87649], [27.4207, 0.85915], [27.38652, 0.84549], [27.37474, 0.84566], [27.33381, 0.877], [27.31728, 0.87309], [27.30877, 0.87855], [27.29269, 0.87104], [27.28137, 0.88977], [27.25003, 0.9054], [27.22674, 0.92126], [27.20346, 0.90989], [27.20054, 0.90436], [27.03413, 0.82831], [27.00864, 0.83582], [26.96676, 0.83114], [26.94399, 0.82049], [26.93525, 0.81294], [26.93458, 0.76985], [26.91238, 0.73333], [26.89967, 0.70355], [26.88363, 0.68418], [26.85927, 0.66669], [26.84645, 0.64107], [26.83741, 0.63597], [26.84029, 0.63303], [26.83797, 0.6323], [26.84031, 0.62973], [26.83851, 0.62608], [26.84129, 0.62434], [26.83681, 0.62608], [26.83503, 0.62396], [26.8402, 0.61951], [26.83569, 0.61773], [26.83866, 0.61477], [26.8313, 0.61593], [26.83527, 0.61009], [26.82969, 0.61228], [26.83187, 0.60857], [26.82776, 0.60728], [26.82797, 0.61142], [26.82419, 0.61106], [26.82097, 0.60756], [26.82314, 0.60205], [26.82061, 0.59666], [26.81108, 0.59976], [26.83611, 0.57055], [26.84707, 0.54989], [26.90383, 0.46702], [26.86241, 0.41487], [26.84347, 0.37936], [26.80592, 0.32428], [26.83045, 0.25197], [26.8161, 0.24509], [26.8221, 0.24119], [26.82148, 0.23743], [26.81379, 0.23391], [26.81689, 0.2261], [26.80936, 0.22179], [26.80243, 0.20464], [26.78897, 0.19115], [26.7753, 0.18959], [26.77323, 0.18328], [26.76896, 0.18492], [26.76681, 0.18262], [26.75687, 0.19094], [26.74799, 0.19055], [26.7384, 0.18762], [26.73681, 0.18306], [26.72304, 0.19241], [26.71802, 0.17207], [26.70914, 0.17442], [26.70708, 0.16532], [26.70245, 0.16103], [26.68751, 0.16017], [26.68373, 0.15038], [26.68717, 0.14214], [26.68082, 0.13476], [26.68219, 0.13013], [26.67275, 0.12257], [26.66245, 0.13116], [26.65799, 0.13099], [26.65102, 0.14819], [26.64437, 0.14685], [26.64401, 0.15315], [26.63944, 0.15595], [26.50462, 0.10099], [26.48269, 0.05941], [26.41258, 0.06275], [26.34658, 0.08011], [26.3179, 0.0827], [26.18642, 0.14706], [26.16919, 0.16263], [26.13301, 0.17469], [26.1183, 0.22643], [26.10304, 0.25108], [26.09214, 0.26144], [26.07525, 0.30013], [26.07402, 0.31389], [26.06244, 0.33432], [26.05098, 0.34636], [26.09825, 0.42016], [26.15023, 0.45036], [26.18132, 0.47402], [26.20946, 0.50604], [26.22781, 0.5363], [26.21422, 0.52886], [26.21144, 0.53315], [26.21776, 0.54385], [26.19825, 0.54061], [26.18931, 0.54598], [26.18502, 0.55645], [26.19447, 0.56643], [26.19355, 0.57812], [26.18821, 0.58253], [26.1873, 0.58912], [26.18045, 0.59582], [26.16748, 0.6197], [26.14809, 0.61281], [26.14556, 0.60671], [26.12886, 0.6187], [26.12019, 0.62121], [26.12367, 0.63255], [26.13098, 0.63465], [26.13328, 0.63978], [26.12637, 0.64316], [26.133, 0.64899], [26.1282, 0.65648], [26.12723, 0.67449], [26.12415, 0.67429], [26.11951, 0.66353], [26.11677, 0.66459], [26.12112, 0.68809], [26.11206, 0.67993], [26.10193, 0.68036], [26.10527, 0.66762], [26.09756, 0.66121], [26.08962, 0.66906], [26.09765, 0.67603], [26.08987, 0.69088], [26.0881, 0.68641], [26.08078, 0.68438], [26.05442, 0.68607], [26.05679, 0.69265], [26.06422, 0.68836], [26.07322, 0.69126], [26.07925, 0.7066], [26.0961, 0.70024], [26.10182, 0.70703], [26.09251, 0.71154], [26.09295, 0.70488], [26.08949, 0.70333], [26.08588, 0.71165], [26.08022, 0.71573], [26.0722, 0.71222], [26.06692, 0.71436], [26.06712, 0.71847], [26.07249, 0.72126], [26.07089, 0.72457], [26.04881, 0.72713], [26.05632, 0.7391], [26.04863, 0.74299], [26.05323, 0.74855], [26.04598, 0.74633], [26.04183, 0.75019], [26.04277, 0.75901], [26.04898, 0.76531], [26.05784, 0.75582], [26.06034, 0.76237], [26.07096, 0.76634], [26.07062, 0.77147], [26.07588, 0.77597], [26.07708, 0.78224], [26.08174, 0.78159], [26.08322, 0.78878], [26.09133, 0.79429], [26.0944, 0.80076], [26.09946, 0.80129], [26.10948, 0.81865], [26.10673, 0.81935], [26.10377, 0.81245], [26.09985, 0.81212], [26.10332, 0.81691], [26.09847, 0.82508], [26.10184, 0.83182], [26.118, 0.82903], [26.12527, 0.83324], [26.13092, 0.83173], [26.13338, 0.8262], [26.12553, 0.82611], [26.12336, 0.82277], [26.13396, 0.81721], [26.13723, 0.82311], [26.14418, 0.82506], [26.134, 0.83648], [26.14923, 0.8349], [26.15737, 0.84243], [26.16374, 0.85973], [26.19251, 0.90136], [26.19996, 0.91554], [26.19996, 0.92849], [26.21721, 0.95641], [26.22705, 0.96683], [26.23681, 1.0016], [26.25464, 1.03321], [26.25868, 1.05077], [26.26473, 1.055], [26.29051, 1.05742], [26.30464, 1.04692], [26.33862, 1.11108], [26.35363, 1.11109], [26.36354, 1.15927], [26.36643, 1.19297], [26.3658, 1.22728], [26.36198, 1.23545], [26.37157, 1.25545], [26.37878, 1.2832], [26.4142, 1.2843], [26.43334, 1.30616], [26.45149, 1.30405], [26.45419, 1.30098], [26.46006, 1.31107], [26.47683, 1.32744], [26.49905, 1.33757], [26.51009, 1.35302], [26.53142, 1.37337], [26.53836, 1.39088], [26.59181, 1.41062], [26.68017, 1.43185], [26.68945, 1.43143], [26.70244, 1.43684], [26.71327, 1.44405], [26.71594, 1.46775], [26.72472, 1.47936], [26.73806, 1.4825], [26.74356, 1.48313], [26.75187, 1.47779], [26.76631, 1.45818], [26.78097, 1.45403], [26.85107, 1.49411], [26.88369, 1.49592], [26.94001, 1.48468], [26.95982, 1.47613], [26.95592, 1.45924], [26.97365, 1.4562], [26.98979, 1.46287], [27.02174, 1.45981], [27.26854, 1.41768], [27.35855, 1.53552], [27.36693, 1.53652], [27.36631, 1.49719], [27.41919, 1.48973], [27.4403, 1.50554], [27.45008, 1.47639], [27.46832, 1.46372], [27.47711, 1.41862], [27.48735, 1.40011], [27.49684, 1.39278], [27.5091, 1.39061], [27.52419, 1.36541], [27.55693, 1.3431], [27.55395, 1.32399], [27.5758, 1.32211], [27.58979, 1.34349], [27.59909, 1.34882], [27.60454, 1.34365], [27.60889, 1.32672], [27.61476, 1.32299], [27.64467, 1.32437], [27.67828, 1.33429], [27.69036, 1.32361], [27.70208, 1.32149], [27.71056, 1.31346], [27.72504, 1.30964], [27.72928, 1.30205], [27.73912, 1.29577], [27.75867, 1.30405], [27.77748, 1.29518], [27.77702, 1.28226], [27.76526, 1.25612], [27.76829, 1.24433], [27.78317, 1.2284], [27.77823, 1.22099], [27.75557, 1.21061], [27.75656, 1.19438], [27.77065, 1.14968], [27.73947, 1.12123], [27.74083, 1.06899], [27.74672, 1.06753], [27.75698, 1.07339], [27.76912, 1.06578], [27.7731, 1.05869], [27.78333, 1.06513], [27.80218, 1.06007], [27.82435, 1.06323], [27.83459, 1.05055], [27.85323, 1.03894], [27.86031, 1.03965], [27.86355, 1.04562], [27.87563, 1.05071], [27.89514, 1.04892], [27.90481, 1.04346], [27.92592, 1.04645], [27.93353, 1.04227], [27.93575, 1.03602], [27.92255, 1.00455], [27.87808, 0.94597], [27.88623, 0.93182], [27.89294, 0.93366], [27.90814, 0.92514], [27.91989, 0.93242], [27.92881, 0.92264], [27.93882, 0.92137], [27.9509, 0.92144], [27.97432, 0.94009], [27.9956, 0.94261], [27.97703, 0.89183], [27.94668, 0.82707], [27.93802, 0.78685], [27.94148, 0.76767], [27.93557, 0.74899], [28.02747, 0.63304]]]}}, {"type": "Feature", "properties": {"zone": "Biena", "province": "Nord-Kivu", "lat": 0.24729, "lon": 28.99729, "population": 136159}, "geometry": {"type": "Polygon", "coordinates": [[[29.17071, 0.32522], [29.17819, 0.31216], [29.16299, 0.28911], [29.16627, 0.28788], [29.14938, 0.28193], [29.14277, 0.27591], [29.14862, 0.26544], [29.1474, 0.26096], [29.16808, 0.25153], [29.16738, 0.24113], [29.17434, 0.23745], [29.1769, 0.22864], [29.1567, 0.22381], [29.15353, 0.21511], [29.14883, 0.21187], [29.15228, 0.19767], [29.16397, 0.17878], [29.17541, 0.18035], [29.18149, 0.17707], [29.18404, 0.17927], [29.2042, 0.17107], [29.21034, 0.16507], [29.21542, 0.16591], [29.2156, 0.16187], [29.23007, 0.1524], [29.21768, 0.14951], [29.2139, 0.15177], [29.21113, 0.14285], [29.20524, 0.1413], [29.21151, 0.13028], [29.22332, 0.12801], [29.22564, 0.12396], [29.2218, 0.11666], [29.21709, 0.11396], [29.21297, 0.11662], [29.20415, 0.10806], [29.18633, 0.11289], [29.18653, 0.12589], [29.17837, 0.12695], [29.16986, 0.11604], [29.16311, 0.11899], [29.14096, 0.10989], [29.13337, 0.1198], [29.12253, 0.11881], [29.11954, 0.13399], [29.10043, 0.13303], [29.08854, 0.14055], [29.0867, 0.13769], [29.082, 0.13988], [29.06826, 0.13643], [29.06276, 0.13205], [29.05475, 0.13517], [29.04684, 0.1483], [29.04491, 0.14515], [29.04742, 0.13954], [29.04156, 0.13995], [29.03387, 0.14525], [29.02839, 0.15465], [29.0225, 0.15277], [29.02024, 0.14387], [29.01395, 0.14039], [29.01598, 0.13431], [29.00857, 0.13377], [29.00275, 0.11946], [28.99961, 0.12099], [28.99896, 0.11477], [28.99499, 0.11219], [28.98223, 0.11743], [28.97769, 0.11635], [28.97298, 0.12144], [28.96531, 0.11812], [28.95992, 0.12171], [28.95674, 0.12031], [28.95845, 0.11825], [28.95225, 0.12238], [28.94571, 0.12223], [28.9577, 0.10065], [28.9291, 0.09523], [28.9155, 0.10181], [28.90709, 0.09805], [28.88091, 0.09821], [28.85974, 0.1123], [28.83619, 0.10836], [28.82476, 0.10001], [28.81618, 0.1058], [28.81403, 0.1262], [28.83582, 0.12988], [28.84153, 0.13516], [28.84316, 0.1432], [28.83453, 0.14532], [28.82721, 0.15639], [28.79708, 0.16437], [28.75994, 0.15334], [28.77071, 0.18807], [28.77819, 0.18713], [28.79103, 0.2003], [28.77413, 0.23075], [28.78921, 0.23585], [28.8056, 0.26375], [28.81579, 0.26906], [28.82216, 0.28047], [28.83939, 0.29276], [28.84125, 0.30292], [28.85424, 0.31532], [28.85426, 0.32854], [28.85125, 0.33026], [28.8483, 0.34158], [28.856, 0.34194], [28.86014, 0.34664], [28.86656, 0.34555], [28.86827, 0.35938], [28.87738, 0.363], [28.87974, 0.37036], [28.89574, 0.36102], [28.8952, 0.35346], [28.90409, 0.34576], [28.93862, 0.34647], [28.94956, 0.33407], [28.95788, 0.33458], [28.96748, 0.33057], [28.96475, 0.32476], [28.96736, 0.32177], [28.9645, 0.32215], [28.9669, 0.31464], [28.9731, 0.31007], [29.00096, 0.31299], [28.99646, 0.31744], [28.99703, 0.32813], [29.0041, 0.33481], [28.99871, 0.34328], [29.00344, 0.34611], [29.00488, 0.36139], [28.99733, 0.38835], [28.99192, 0.39127], [29.00332, 0.39401], [29.00185, 0.40349], [29.00704, 0.41322], [28.99953, 0.4245], [29.00669, 0.43036], [29.00552, 0.43465], [29.01392, 0.44536], [29.01373, 0.45111], [29.02763, 0.4614], [29.02741, 0.46812], [29.04206, 0.47283], [29.04631, 0.47806], [29.04903, 0.47863], [29.05457, 0.47147], [29.07432, 0.47496], [29.08071, 0.4616], [29.07336, 0.45393], [29.07695, 0.44243], [29.08604, 0.44679], [29.10169, 0.43862], [29.10055, 0.43146], [29.08866, 0.42277], [29.09355, 0.39802], [29.09195, 0.39203], [29.0964, 0.3933], [29.09821, 0.38715], [29.0957, 0.37845], [29.11061, 0.37362], [29.11722, 0.37593], [29.12301, 0.3714], [29.13654, 0.37162], [29.13533, 0.36856], [29.14191, 0.36209], [29.1413, 0.35589], [29.14658, 0.34832], [29.1507, 0.35234], [29.15876, 0.3506], [29.16135, 0.34324], [29.17057, 0.34876], [29.17152, 0.34293], [29.16471, 0.33591], [29.16608, 0.3256], [29.17071, 0.32522]]]}}, {"type": "Feature", "properties": {"zone": "Buta", "province": "Bas-Uele", "lat": 2.6989, "lon": 24.89473, "population": 274964}, "geometry": {"type": "Polygon", "coordinates": [[[24.90894, 3.47568], [24.90512, 3.46703], [24.90978, 3.46819], [24.91738, 3.43584], [24.92829, 3.41306], [24.93524, 3.37604], [24.93522, 3.35766], [24.93355, 3.33426], [24.90678, 3.26944], [24.90065, 3.2308], [24.93126, 3.2265], [24.93223, 3.22103], [24.93518, 3.22433], [24.95092, 3.20436], [24.9624, 3.18464], [24.95822, 3.17176], [24.95838, 3.14926], [24.96595, 3.12987], [25.00157, 3.1125], [25.04221, 3.07872], [25.09231, 3.04396], [25.10126, 3.02747], [25.10741, 3.00168], [25.10728, 2.98832], [25.10432, 2.98434], [25.11298, 2.97259], [25.1168, 2.95403], [25.15365, 2.9086], [25.17222, 2.89842], [25.13059, 2.86306], [25.14169, 2.83244], [25.15909, 2.81085], [25.16745, 2.80559], [25.16701, 2.76179], [25.17352, 2.72962], [25.17566, 2.6976], [25.18959, 2.69475], [25.19249, 2.69916], [25.19944, 2.69823], [25.20459, 2.70473], [25.22734, 2.70861], [25.22942, 2.69601], [25.22444, 2.68968], [25.23929, 2.6906], [25.24527, 2.68563], [25.253, 2.68574], [25.26169, 2.69043], [25.26225, 2.68407], [25.25665, 2.67515], [25.26064, 2.6717], [25.25978, 2.66655], [25.26611, 2.661], [25.26851, 2.66218], [25.26965, 2.64988], [25.26639, 2.64621], [25.26847, 2.64278], [25.28505, 2.63737], [25.29122, 2.62801], [25.30073, 2.62701], [25.30862, 2.61897], [25.31821, 2.61878], [25.33442, 2.60409], [25.34162, 2.6037], [25.3519, 2.61107], [25.36057, 2.57905], [25.38067, 2.54457], [25.41965, 2.46342], [25.44181, 2.42431], [25.44865, 2.4181], [25.45236, 2.40559], [25.4673, 2.39151], [25.47826, 2.34539], [25.48076, 2.30343], [25.48941, 2.30732], [25.52469, 2.31244], [25.55945, 2.31244], [25.57839, 2.32266], [25.61347, 2.32752], [25.6487, 2.32836], [25.68099, 2.33885], [25.70387, 2.31683], [25.70861, 2.29684], [25.71787, 2.27872], [25.7123, 2.27438], [25.70741, 2.27783], [25.70162, 2.27449], [25.69983, 2.26853], [25.6895, 2.25824], [25.69208, 2.25335], [25.68546, 2.24928], [25.68215, 2.24194], [25.66893, 2.23484], [25.66853, 2.23083], [25.6657, 2.23347], [25.661, 2.22704], [25.65816, 2.2313], [25.64875, 2.22651], [25.63155, 2.20553], [25.62408, 2.2041], [25.62192, 2.19837], [25.61693, 2.20004], [25.61621, 2.19442], [25.6026, 2.17761], [25.59672, 2.17595], [25.58864, 2.17989], [25.58513, 2.17677], [25.57813, 2.18129], [25.56843, 2.17628], [25.55627, 2.18111], [25.54754, 2.1806], [25.53638, 2.17377], [25.52824, 2.17409], [25.51799, 2.17891], [25.5091, 2.19482], [25.49492, 2.20006], [25.47636, 2.2013], [25.46657, 2.20595], [25.44631, 2.19983], [25.42662, 2.20934], [25.41407, 2.20966], [25.41201, 2.21856], [25.39801, 2.2215], [25.39211, 2.22642], [25.38545, 2.22622], [25.37413, 2.23784], [25.35021, 2.24891], [25.34477, 2.25463], [25.34511, 2.26517], [25.33253, 2.27817], [25.31582, 2.2808], [25.31553, 2.28499], [25.30594, 2.28983], [25.28229, 2.28253], [25.26849, 2.29197], [25.26557, 2.29007], [25.26365, 2.29344], [25.24936, 2.29396], [25.24243, 2.30033], [25.23552, 2.30027], [25.23053, 2.30606], [25.22792, 2.30428], [25.21135, 2.31281], [25.19959, 2.31067], [25.19564, 2.31343], [25.18563, 2.30767], [25.18307, 2.30922], [25.17957, 2.30142], [25.16679, 2.29465], [25.16851, 2.29268], [25.1639, 2.28081], [25.16186, 2.27717], [25.15901, 2.27828], [25.15473, 2.26974], [25.14884, 2.27109], [25.13512, 2.25978], [25.12511, 2.25596], [25.11187, 2.22312], [25.10626, 2.22022], [25.1062, 2.21297], [25.09698, 2.21442], [25.09309, 2.22307], [25.08026, 2.22701], [25.07338, 2.23626], [25.06693, 2.23856], [25.06119, 2.25095], [25.06294, 2.25306], [25.05468, 2.25986], [25.04832, 2.25774], [25.04482, 2.25146], [25.03872, 2.25935], [25.03514, 2.25287], [25.02602, 2.26539], [25.02193, 2.263], [25.02018, 2.25683], [25.0162, 2.25934], [25.01605, 2.26603], [25.01208, 2.26713], [25.00672, 2.26072], [25.00206, 2.26381], [24.99721, 2.25698], [24.99013, 2.25924], [24.98874, 2.25609], [24.98662, 2.26095], [24.97336, 2.25344], [24.9686, 2.25866], [24.96132, 2.26039], [24.96042, 2.25116], [24.95478, 2.24697], [24.94945, 2.25297], [24.95513, 2.25875], [24.95211, 2.26571], [24.9342, 2.26094], [24.92825, 2.2673], [24.92353, 2.26735], [24.9209, 2.26159], [24.91112, 2.25851], [24.90634, 2.25008], [24.90053, 2.24904], [24.89961, 2.24268], [24.89433, 2.24069], [24.87947, 2.2641], [24.87917, 2.27416], [24.87347, 2.27561], [24.86836, 2.2835], [24.86161, 2.27648], [24.86353, 2.26659], [24.8611, 2.26424], [24.65501, 2.27209], [24.60517, 2.24759], [24.5624, 2.24759], [24.55345, 2.25133], [24.51981, 2.27919], [24.44906, 2.2815], [24.44007, 2.26983], [24.42543, 2.25963], [24.40947, 2.25914], [24.36493, 2.2399], [24.35617, 2.2439], [24.3434, 2.26621], [24.36261, 2.33296], [24.36134, 2.34952], [24.35588, 2.36148], [24.36548, 2.37091], [24.37338, 2.38866], [24.38847, 2.38864], [24.41507, 2.41877], [24.41612, 2.42342], [24.5126, 2.51229], [24.54045, 2.57091], [24.56279, 2.59717], [24.54974, 2.61454], [24.54622, 2.61387], [24.54233, 2.60563], [24.53983, 2.60632], [24.53574, 2.61969], [24.53674, 2.62864], [24.54458, 2.63036], [24.54075, 2.6364], [24.53746, 2.63681], [24.52793, 2.6288], [24.52039, 2.63418], [24.51677, 2.64139], [24.50672, 2.63638], [24.51007, 2.64686], [24.50289, 2.64926], [24.49442, 2.64692], [24.49292, 2.63682], [24.48677, 2.6508], [24.47981, 2.64095], [24.47639, 2.649], [24.46692, 2.65458], [24.46019, 2.64461], [24.45362, 2.64722], [24.45094, 2.65843], [24.44196, 2.66408], [24.44307, 2.69453], [24.43948, 2.71252], [24.44714, 2.7367], [24.43718, 2.75467], [24.43677, 2.78096], [24.44969, 2.77588], [24.45977, 2.79639], [24.49451, 2.80099], [24.49559, 2.81076], [24.51109, 2.81654], [24.51171, 2.82024], [24.50812, 2.82147], [24.51116, 2.82636], [24.51018, 2.83602], [24.52211, 2.85119], [24.52213, 2.86179], [24.51751, 2.87075], [24.51243, 2.88039], [24.49335, 2.89803], [24.482, 2.92767], [24.48324, 2.95736], [24.49407, 2.9924], [24.49494, 3.00253], [24.49074, 3.01977], [24.4977, 3.05018], [24.4951, 3.06697], [24.49691, 3.0732], [24.53021, 3.09889], [24.54369, 3.10517], [24.55056, 3.10497], [24.56837, 3.11587], [24.5764, 3.11176], [24.58415, 3.11939], [24.59217, 3.11827], [24.60493, 3.13099], [24.61799, 3.13012], [24.62805, 3.13339], [24.65347, 3.13051], [24.66605, 3.13356], [24.677, 3.14281], [24.66915, 3.15843], [24.68357, 3.18519], [24.68486, 3.20879], [24.69038, 3.23186], [24.68783, 3.2932], [24.6985, 3.32414], [24.70661, 3.33306], [24.7106, 3.35188], [24.70571, 3.35859], [24.705, 3.3659], [24.6914, 3.38592], [24.69211, 3.39336], [24.68889, 3.39899], [24.67338, 3.40618], [24.66312, 3.41889], [24.6302, 3.44191], [24.60575, 3.44886], [24.59149, 3.46371], [24.61736, 3.4724], [24.62265, 3.47791], [24.65741, 3.49517], [24.66576, 3.49273], [24.68018, 3.47573], [24.69713, 3.46673], [24.71171, 3.47186], [24.72903, 3.46482], [24.73828, 3.48784], [24.75239, 3.48483], [24.7642, 3.49161], [24.78352, 3.49292], [24.78821, 3.50283], [24.79341, 3.50552], [24.8034, 3.49846], [24.80382, 3.50721], [24.79738, 3.5074], [24.79411, 3.5114], [24.8073, 3.51153], [24.82499, 3.51787], [24.83036, 3.51764], [24.83948, 3.51007], [24.84997, 3.49118], [24.8658, 3.48951], [24.88251, 3.48328], [24.89088, 3.48543], [24.899, 3.47662], [24.90894, 3.47568]]]}}, {"type": "Feature", "properties": {"zone": "Bulu", "province": "Sud-Ubangi", "lat": 2.49837, "lon": 20.0007, "population": 167481}, "geometry": {"type": "Polygon", "coordinates": [[[20.12011, 2.93671], [20.12541, 2.92632], [20.14045, 2.92075], [20.13664, 2.90791], [20.14215, 2.89431], [20.13706, 2.88681], [20.13986, 2.88022], [20.13397, 2.8443], [20.13774, 2.82792], [20.12849, 2.82521], [20.11135, 2.76977], [20.14108, 2.75075], [20.16305, 2.72236], [20.17325, 2.71864], [20.19195, 2.71861], [20.18578, 2.69497], [20.17873, 2.68557], [20.17908, 2.67919], [20.18254, 2.67677], [20.17987, 2.67243], [20.18615, 2.66999], [20.18403, 2.66237], [20.18905, 2.64984], [20.1845, 2.64437], [20.19426, 2.63577], [20.19286, 2.62628], [20.19567, 2.61645], [20.18983, 2.61308], [20.19023, 2.60508], [20.1834, 2.59508], [20.18589, 2.59439], [20.18918, 2.58156], [20.18855, 2.57118], [20.19343, 2.56591], [20.18997, 2.56277], [20.19504, 2.55877], [20.19278, 2.5547], [20.19821, 2.54785], [20.1986, 2.53538], [20.20844, 2.52143], [20.20522, 2.51461], [20.21173, 2.50967], [20.20882, 2.50302], [20.21062, 2.49853], [20.20792, 2.49691], [20.21147, 2.48331], [20.22338, 2.48215], [20.23127, 2.47047], [20.24381, 2.46864], [20.25171, 2.46008], [20.23846, 2.44732], [20.21949, 2.45117], [20.2056, 2.44979], [20.2074, 2.43585], [20.20501, 2.42435], [20.18941, 2.40661], [20.18858, 2.39688], [20.19136, 2.39213], [20.18872, 2.38867], [20.19291, 2.38573], [20.18426, 2.3712], [20.16284, 2.36215], [20.15368, 2.34864], [20.13973, 2.35108], [20.12652, 2.34161], [20.09592, 2.3425], [20.08737, 2.33782], [20.08899, 2.32971], [20.09872, 2.32285], [20.09935, 2.30741], [20.10382, 2.29894], [20.10255, 2.29616], [20.0943, 2.29716], [20.08928, 2.29358], [20.09087, 2.27272], [20.07477, 2.26745], [20.06448, 2.25169], [20.04804, 2.25691], [20.03817, 2.25232], [20.03121, 2.23219], [20.03256, 2.21647], [20.02821, 2.20827], [20.01612, 2.20315], [20.01732, 2.19512], [20.01373, 2.18242], [20.00808, 2.18033], [19.9919, 2.1856], [19.9863, 2.18001], [19.98438, 2.17215], [19.97369, 2.1669], [19.97127, 2.15764], [19.95599, 2.15418], [19.94992, 2.14813], [19.95125, 2.14028], [19.95867, 2.13678], [19.96126, 2.13043], [19.95947, 2.12546], [19.94551, 2.1161], [19.94367, 2.10546], [19.93667, 2.09502], [19.94174, 2.05512], [19.92823, 2.05428], [19.9209, 2.04234], [19.92237, 2.03381], [19.93091, 2.02765], [19.93214, 2.02275], [19.92714, 2.01575], [19.90564, 2.00928], [19.90256, 1.99781], [19.90592, 1.98281], [19.89709, 1.97249], [19.87167, 1.99994], [19.80454, 2.00239], [19.80025, 2.11347], [19.79568, 2.13456], [19.79985, 2.16713], [19.8095, 2.18936], [19.81754, 2.19628], [19.84768, 2.21015], [19.86815, 2.23034], [19.88556, 2.27927], [19.88492, 2.36532], [19.88863, 2.37812], [19.89092, 2.42747], [19.88459, 2.43012], [19.86935, 2.45975], [19.86912, 2.47062], [19.85358, 2.49408], [19.83049, 2.51432], [19.81667, 2.51942], [19.8111, 2.54586], [19.83358, 2.5583], [19.86012, 2.563], [19.87522, 2.60758], [19.86976, 2.63076], [19.85905, 2.63237], [19.85708, 2.64792], [19.84788, 2.65133], [19.85218, 2.66016], [19.84994, 2.67495], [19.8767, 2.69376], [19.86956, 2.69554], [19.86436, 2.71875], [19.85521, 2.73514], [19.85772, 2.74501], [19.85147, 2.75304], [19.85101, 2.762], [19.86387, 2.76334], [19.88176, 2.77807], [19.89762, 2.78423], [19.90461, 2.79095], [19.90607, 2.80522], [19.89601, 2.80378], [19.89364, 2.82511], [19.8998, 2.83237], [19.89891, 2.83895], [19.91294, 2.85799], [19.92369, 2.85853], [19.9308, 2.85482], [19.94996, 2.86256], [19.95313, 2.87297], [19.96766, 2.87646], [19.97498, 2.88391], [20.00421, 2.88469], [20.01572, 2.88827], [20.02469, 2.89712], [20.03885, 2.89421], [20.05675, 2.91504], [20.07203, 2.9211], [20.08516, 2.93408], [20.09287, 2.94788], [20.10517, 2.94167], [20.11204, 2.94258], [20.12011, 2.93671]]]}}, {"type": "Feature", "properties": {"zone": "Dungu", "province": "Haut-Uele", "lat": 3.83406, "lon": 28.99582, "population": 307763}, "geometry": {"type": "Polygon", "coordinates": [[[29.80719, 4.36689], [29.80299, 4.34871], [29.78252, 4.31123], [29.77218, 4.29974], [29.76651, 4.28641], [29.76294, 4.28786], [29.75684, 4.28389], [29.75579, 4.27935], [29.75914, 4.27681], [29.74322, 4.26158], [29.71039, 4.25187], [29.69701, 4.2434], [29.69079, 4.23405], [29.68422, 4.21243], [29.68833, 4.20552], [29.69105, 4.18641], [29.68276, 4.16548], [29.67381, 4.15997], [29.67542, 4.14862], [29.67124, 4.14614], [29.66358, 4.12649], [29.66293, 4.11983], [29.66785, 4.11209], [29.66682, 4.10038], [29.67072, 4.08004], [29.66709, 4.07802], [29.66788, 4.06682], [29.66339, 4.06742], [29.66345, 4.06337], [29.6588, 4.06139], [29.66209, 4.05952], [29.66239, 4.05454], [29.6586, 4.042], [29.66009, 4.03769], [29.65505, 4.03733], [29.65717, 4.03423], [29.654, 4.03404], [29.65288, 4.02979], [29.64457, 4.03365], [29.63957, 4.03123], [29.63635, 4.01856], [29.62949, 4.02077], [29.62639, 4.01187], [29.62228, 4.01236], [29.62591, 4.00773], [29.62107, 4.00804], [29.61972, 4.00324], [29.61394, 4.00379], [29.61352, 4.00796], [29.60537, 4.01321], [29.60345, 4.00558], [29.59664, 4.01149], [29.59254, 4.01031], [29.59308, 3.99832], [29.57794, 4.00093], [29.5738, 3.99802], [29.57288, 4.00053], [29.56687, 3.99939], [29.56517, 3.99545], [29.55975, 3.9973], [29.55261, 3.99333], [29.55333, 3.99067], [29.56159, 3.98966], [29.56333, 3.98587], [29.5739, 3.98418], [29.58337, 3.96152], [29.60033, 3.94487], [29.61675, 3.94334], [29.62015, 3.93829], [29.61642, 3.93166], [29.62666, 3.92023], [29.62545, 3.90981], [29.63718, 3.89717], [29.63737, 3.89302], [29.62716, 3.88154], [29.62716, 3.86569], [29.61697, 3.86212], [29.61306, 3.8537], [29.60368, 3.85616], [29.5923, 3.84812], [29.59431, 3.83565], [29.58744, 3.83188], [29.5809, 3.83749], [29.57805, 3.83531], [29.58098, 3.82227], [29.57939, 3.81976], [29.57453, 3.82169], [29.57261, 3.80363], [29.56306, 3.80447], [29.5591, 3.79982], [29.55878, 3.78535], [29.55277, 3.77658], [29.54645, 3.77352], [29.54867, 3.75931], [29.54544, 3.75443], [29.54297, 3.76036], [29.53413, 3.75992], [29.53609, 3.75741], [29.53328, 3.74804], [29.54092, 3.74358], [29.54403, 3.74484], [29.54668, 3.74098], [29.55095, 3.74599], [29.57178, 3.74181], [29.58314, 3.72572], [29.59974, 3.73366], [29.64701, 3.73375], [29.66152, 3.73645], [29.67033, 3.73609], [29.67253, 3.72734], [29.62607, 3.72085], [29.61224, 3.69433], [29.60651, 3.6924], [29.57686, 3.6923], [29.57044, 3.68776], [29.55305, 3.68789], [29.55045, 3.69518], [29.53298, 3.68881], [29.53207, 3.66562], [29.51944, 3.64], [29.52529, 3.61382], [29.52587, 3.58482], [29.53107, 3.55091], [29.54011, 3.5275], [29.5322, 3.51165], [29.50574, 3.49311], [29.49613, 3.48224], [29.49257, 3.48268], [29.45281, 3.45454], [29.43418, 3.44821], [29.4027, 3.44891], [29.3939, 3.44348], [29.38537, 3.43162], [29.37769, 3.43458], [29.3597, 3.42649], [29.35844, 3.40157], [29.35204, 3.39905], [29.33878, 3.37959], [29.3344, 3.38165], [29.32291, 3.37927], [29.30984, 3.38903], [29.27548, 3.39887], [29.25003, 3.41346], [29.22362, 3.4372], [29.21465, 3.43154], [29.21055, 3.43255], [29.20534, 3.44318], [29.19149, 3.44663], [29.17747, 3.46488], [29.16076, 3.47324], [29.15476, 3.48079], [29.14653, 3.46997], [29.1392, 3.46929], [29.12154, 3.4502], [29.12609, 3.42373], [29.12998, 3.42004], [29.12882, 3.40646], [29.13408, 3.39725], [29.12743, 3.38989], [29.12636, 3.38311], [29.12125, 3.38134], [29.12045, 3.36989], [29.04587, 3.2796], [29.02241, 3.25934], [29.01267, 3.25568], [29.01265, 3.24322], [29.02207, 3.24204], [29.03102, 3.23157], [29.0379, 3.21138], [29.04352, 3.20908], [29.0508, 3.19978], [29.05173, 3.19107], [29.04383, 3.18136], [29.03798, 3.16506], [29.02801, 3.15498], [29.02431, 3.14412], [28.99406, 3.11009], [28.98541, 3.09096], [28.97656, 3.08445], [28.96469, 3.08331], [28.94385, 3.09376], [28.92462, 3.09538], [28.89402, 3.11024], [28.8673, 3.11616], [28.85494, 3.13197], [28.84116, 3.1347], [28.7847, 3.12827], [28.77151, 3.12249], [28.75494, 3.10876], [28.74268, 3.10458], [28.73818, 3.09837], [28.72729, 3.09501], [28.71887, 3.08187], [28.68443, 3.07047], [28.67085, 3.05471], [28.6661, 3.0356], [28.66021, 3.02956], [28.65694, 3.01699], [28.64715, 3.00334], [28.64585, 2.99785], [28.65138, 2.98282], [28.65694, 2.97786], [28.65748, 2.97049], [28.65731, 2.95965], [28.64673, 2.93358], [28.63406, 2.9179], [28.61233, 2.86721], [28.60858, 2.86272], [28.59904, 2.86034], [28.60531, 2.8489], [28.59511, 2.84559], [28.58958, 2.83981], [28.58487, 2.84137], [28.58591, 2.83502], [28.57964, 2.82956], [28.57714, 2.81875], [28.56869, 2.81811], [28.56327, 2.80798], [28.55736, 2.82167], [28.55888, 2.83777], [28.56585, 2.85179], [28.55168, 2.86053], [28.55759, 2.87691], [28.55113, 2.88376], [28.55014, 2.89179], [28.54452, 2.89215], [28.53968, 2.88678], [28.52407, 2.88432], [28.52003, 2.88086], [28.53131, 2.86649], [28.53794, 2.84374], [28.52187, 2.83758], [28.5103, 2.82533], [28.50113, 2.83363], [28.49163, 2.83103], [28.48405, 2.8344], [28.4797, 2.83041], [28.47402, 2.83289], [28.47605, 2.8377], [28.46372, 2.85636], [28.46986, 2.86466], [28.46589, 2.86722], [28.4612, 2.86293], [28.45527, 2.86456], [28.45206, 2.86944], [28.4452, 2.87018], [28.44885, 2.87408], [28.44663, 2.87669], [28.43472, 2.87876], [28.42712, 2.88429], [28.41215, 2.88641], [28.40247, 2.89627], [28.40109, 2.891], [28.39289, 2.88591], [28.38543, 2.8942], [28.37477, 2.89213], [28.36049, 2.89558], [28.35738, 2.90624], [28.35002, 2.91087], [28.34928, 2.91847], [28.34612, 2.92025], [28.34518, 2.92661], [28.35032, 2.93139], [28.34587, 2.94062], [28.33294, 2.94107], [28.32619, 2.95943], [28.33121, 2.96968], [28.33292, 2.98956], [28.33162, 3.01905], [28.32618, 3.03979], [28.32021, 3.04218], [28.30265, 3.0391], [28.2886, 3.05048], [28.29349, 3.08228], [28.32541, 3.08237], [28.33654, 3.088], [28.35023, 3.08827], [28.36079, 3.09918], [28.36694, 3.09937], [28.36036, 3.11811], [28.37077, 3.13477], [28.37918, 3.16016], [28.39226, 3.18504], [28.41163, 3.20862], [28.42039, 3.22928], [28.43115, 3.23282], [28.4441, 3.27027], [28.45475, 3.28755], [28.43532, 3.30272], [28.44226, 3.32138], [28.4667, 3.34455], [28.47795, 3.35962], [28.48427, 3.35747], [28.48441, 3.35993], [28.49306, 3.36229], [28.50302, 3.36121], [28.50685, 3.36919], [28.51978, 3.36756], [28.53065, 3.37259], [28.53209, 3.38794], [28.52288, 3.3952], [28.52071, 3.40709], [28.50689, 3.42577], [28.46386, 3.41003], [28.44761, 3.43111], [28.45888, 3.44954], [28.47766, 3.46757], [28.48164, 3.47939], [28.47713, 3.49272], [28.48934, 3.50151], [28.47496, 3.52393], [28.47753, 3.53468], [28.49676, 3.56406], [28.52241, 3.57095], [28.53328, 3.57836], [28.54766, 3.60924], [28.54238, 3.61401], [28.53279, 3.61355], [28.51443, 3.62857], [28.49622, 3.63302], [28.48061, 3.6318], [28.44155, 3.63826], [28.41961, 3.66006], [28.40718, 3.65583], [28.39288, 3.66117], [28.36541, 3.66466], [28.36289, 3.66331], [28.36336, 3.65513], [28.35004, 3.64784], [28.34022, 3.62474], [28.34126, 3.61797], [28.32974, 3.60315], [28.30533, 3.60642], [28.2968, 3.60438], [28.28396, 3.58879], [28.27802, 3.58809], [28.25281, 3.60675], [28.25472, 3.62037], [28.24732, 3.62762], [28.22815, 3.66196], [28.22541, 3.68569], [28.2107, 3.69614], [28.19909, 3.69644], [28.19187, 3.701], [28.18657, 3.71607], [28.17568, 3.72213], [28.14711, 3.72615], [28.13405, 3.72177], [28.12389, 3.72405], [28.12016, 3.72814], [28.10193, 3.72381], [28.0837, 3.73042], [28.07672, 3.73618], [28.06685, 3.73486], [28.05669, 3.74374], [28.04249, 3.74739], [28.04752, 3.75202], [28.05867, 3.75323], [28.06842, 3.74515], [28.07657, 3.74472], [28.08301, 3.74981], [28.08987, 3.74374], [28.09683, 3.74353], [28.09768, 3.74731], [28.10856, 3.75556], [28.11685, 3.75245], [28.11597, 3.76275], [28.12414, 3.76035], [28.13017, 3.76373], [28.13577, 3.76084], [28.13416, 3.77095], [28.14646, 3.76811], [28.14487, 3.77736], [28.15058, 3.78264], [28.15363, 3.7808], [28.15255, 3.77465], [28.16178, 3.78096], [28.16629, 3.77414], [28.17761, 3.78378], [28.18497, 3.78288], [28.18697, 3.77819], [28.19137, 3.77904], [28.19298, 3.79315], [28.2006, 3.78853], [28.20493, 3.79776], [28.20957, 3.79534], [28.2145, 3.79842], [28.21495, 3.80337], [28.22418, 3.79976], [28.23173, 3.80458], [28.22895, 3.81009], [28.2397, 3.81097], [28.24105, 3.81559], [28.24922, 3.81915], [28.24956, 3.82217], [28.25684, 3.8159], [28.25968, 3.82237], [28.2567, 3.82627], [28.26371, 3.82876], [28.27264, 3.82675], [28.28121, 3.81795], [28.28896, 3.82133], [28.28929, 3.81465], [28.29273, 3.81412], [28.29196, 3.81865], [28.30519, 3.8219], [28.31017, 3.82625], [28.31193, 3.83357], [28.31856, 3.83357], [28.32181, 3.84193], [28.33079, 3.83952], [28.34449, 3.85173], [28.34959, 3.8495], [28.34799, 3.85859], [28.35499, 3.85521], [28.36269, 3.85933], [28.36299, 3.86405], [28.36701, 3.86657], [28.36581, 3.87369], [28.37856, 3.87499], [28.38112, 3.87111], [28.3806, 3.87975], [28.38711, 3.88318], [28.38653, 3.88669], [28.39577, 3.88548], [28.39382, 3.88909], [28.40026, 3.89414], [28.40539, 3.88939], [28.40957, 3.89441], [28.407, 3.89797], [28.41034, 3.90448], [28.41506, 3.90217], [28.41489, 3.89917], [28.42234, 3.90749], [28.43199, 3.90356], [28.44573, 3.90389], [28.44695, 3.90947], [28.45298, 3.9093], [28.45575, 3.90438], [28.45867, 3.91549], [28.4559, 3.92745], [28.46504, 3.92555], [28.47148, 3.91994], [28.47356, 3.92318], [28.47146, 3.93051], [28.47581, 3.93122], [28.47755, 3.92844], [28.48521, 3.93038], [28.49377, 3.92473], [28.50188, 3.9261], [28.50336, 3.93098], [28.5074, 3.92899], [28.51165, 3.93468], [28.50343, 3.94377], [28.49605, 3.94594], [28.4969, 3.95702], [28.49349, 3.96072], [28.50298, 3.96347], [28.5151, 3.95344], [28.51978, 3.96307], [28.52812, 3.96926], [28.52846, 3.97508], [28.54008, 3.97485], [28.5472, 3.9954], [28.55618, 3.99648], [28.55782, 4.00201], [28.57351, 4.00773], [28.57146, 4.01284], [28.57597, 4.01631], [28.5745, 4.02215], [28.58829, 4.02889], [28.59429, 4.03869], [28.60531, 4.04531], [28.60617, 4.04998], [28.61897, 4.04786], [28.62322, 4.05085], [28.62496, 4.06327], [28.62016, 4.0671], [28.62065, 4.0714], [28.62724, 4.0824], [28.63192, 4.08088], [28.63767, 4.10511], [28.64677, 4.11658], [28.64563, 4.11973], [28.65067, 4.12202], [28.64814, 4.12581], [28.65135, 4.13505], [28.64994, 4.14197], [28.62719, 4.1611], [28.62531, 4.176], [28.61737, 4.17998], [28.60355, 4.20296], [28.58956, 4.20977], [28.58441, 4.22209], [28.57595, 4.2295], [28.57282, 4.24075], [28.56617, 4.24289], [28.5611, 4.24092], [28.5578, 4.24358], [28.55776, 4.27177], [28.53478, 4.2772], [28.53001, 4.27544], [28.53162, 4.27722], [28.51945, 4.28724], [28.51568, 4.29435], [28.50797, 4.29731], [28.49018, 4.32489], [28.49191, 4.34084], [28.50261, 4.35002], [28.49774, 4.35742], [28.51333, 4.3638], [28.51393, 4.37684], [28.54066, 4.38312], [28.54518, 4.38689], [28.55478, 4.38527], [28.56347, 4.3883], [28.57132, 4.38248], [28.58077, 4.38286], [28.58807, 4.38813], [28.60334, 4.4209], [28.61397, 4.42235], [28.62848, 4.41827], [28.63945, 4.42549], [28.65309, 4.42454], [28.6692, 4.42936], [28.67174, 4.43361], [28.66905, 4.44217], [28.68545, 4.4581], [28.68957, 4.47872], [28.70299, 4.48901], [28.69514, 4.50432], [28.69667, 4.50949], [28.7056, 4.5146], [28.71444, 4.51375], [28.72405, 4.52613], [28.71761, 4.52959], [28.7184, 4.53465], [28.72415, 4.53653], [28.72881, 4.54538], [28.73668, 4.53852], [28.74487, 4.54511], [28.75274, 4.54279], [28.75571, 4.54747], [28.76607, 4.54581], [28.77635, 4.55871], [28.78779, 4.5637], [28.80225, 4.5563], [28.80091, 4.54669], [28.81137, 4.54145], [28.81169, 4.52803], [28.81564, 4.51969], [28.81117, 4.51316], [28.80929, 4.49698], [28.81839, 4.49619], [28.82636, 4.48545], [28.83656, 4.47956], [28.85961, 4.48356], [28.87128, 4.49219], [28.88871, 4.48727], [28.90984, 4.47604], [28.92277, 4.48498], [28.92636, 4.47853], [28.93438, 4.47712], [28.95525, 4.48424], [28.96461, 4.47938], [28.99193, 4.48266], [28.99678, 4.48478], [29.00042, 4.49492], [29.01899, 4.49594], [29.03521, 4.49133], [29.04295, 4.48203], [29.04232, 4.47192], [29.0573, 4.46079], [29.06123, 4.46181], [29.06287, 4.45804], [29.07383, 4.46278], [29.08262, 4.46005], [29.07874, 4.43452], [29.09042, 4.43356], [29.09991, 4.43687], [29.13492, 4.43238], [29.1378, 4.42895], [29.13557, 4.4157], [29.1495, 4.40948], [29.15564, 4.39409], [29.16499, 4.39353], [29.1743, 4.38276], [29.19946, 4.36645], [29.20203, 4.34979], [29.21583, 4.34089], [29.22143, 4.34112], [29.22869, 4.34878], [29.25209, 4.35385], [29.25347, 4.36468], [29.25969, 4.37463], [29.25304, 4.38389], [29.27058, 4.39873], [29.27552, 4.39843], [29.27726, 4.39339], [29.28467, 4.38934], [29.29679, 4.39453], [29.30622, 4.38278], [29.34689, 4.39728], [29.3488, 4.41916], [29.35421, 4.42694], [29.35541, 4.44901], [29.36191, 4.45204], [29.36911, 4.47056], [29.37494, 4.47224], [29.38053, 4.46905], [29.39644, 4.47538], [29.40377, 4.47282], [29.42234, 4.49714], [29.43089, 4.50014], [29.43568, 4.51217], [29.44392, 4.517], [29.4482, 4.52768], [29.44473, 4.54002], [29.44709, 4.54976], [29.44508, 4.56199], [29.4707, 4.58695], [29.47713, 4.59903], [29.47451, 4.62032], [29.47009, 4.62727], [29.47493, 4.63244], [29.47015, 4.63788], [29.47312, 4.64857], [29.46446, 4.66849], [29.46709, 4.67421], [29.4753, 4.66708], [29.48022, 4.67158], [29.48551, 4.69046], [29.49716, 4.69688], [29.50443, 4.68962], [29.51141, 4.68897], [29.51239, 4.67647], [29.51912, 4.67485], [29.52103, 4.66598], [29.53401, 4.65534], [29.53801, 4.65592], [29.5426, 4.66363], [29.55479, 4.67196], [29.56382, 4.66226], [29.57958, 4.66414], [29.58759, 4.65608], [29.59405, 4.65683], [29.60117, 4.64984], [29.62293, 4.6591], [29.62955, 4.65257], [29.65709, 4.64605], [29.66039, 4.63357], [29.6748, 4.63108], [29.68462, 4.62122], [29.70495, 4.61993], [29.71014, 4.61702], [29.70666, 4.60702], [29.71361, 4.60252], [29.71738, 4.59467], [29.72968, 4.59105], [29.74489, 4.57007], [29.75158, 4.57119], [29.76406, 4.58753], [29.77096, 4.57822], [29.77945, 4.575], [29.78233, 4.5681], [29.79421, 4.56081], [29.80261, 4.56596], [29.8259, 4.56021], [29.82856, 4.55532], [29.82062, 4.55133], [29.82165, 4.54207], [29.81342, 4.53906], [29.80693, 4.52548], [29.79961, 4.52015], [29.79892, 4.506], [29.80982, 4.50051], [29.80401, 4.47842], [29.8069, 4.47345], [29.80351, 4.46513], [29.8057, 4.45844], [29.79678, 4.43244], [29.80077, 4.39974], [29.79872, 4.37567], [29.80719, 4.36689]]]}}, {"type": "Feature", "properties": {"zone": "Ganga", "province": "Bas-Uele", "lat": 3.09548, "lon": 25.97805, "population": 235401}, "geometry": {"type": "Polygon", "coordinates": [[[26.11869, 3.66069], [26.12282, 3.65109], [26.13157, 3.64424], [26.13776, 3.6282], [26.13569, 3.60946], [26.13947, 3.60089], [26.13998, 3.58445], [26.14445, 3.57965], [26.15337, 3.5769], [26.16348, 3.56475], [26.17153, 3.56433], [26.18443, 3.57089], [26.19019, 3.56332], [26.20512, 3.55948], [26.20952, 3.55133], [26.20733, 3.54354], [26.21075, 3.53048], [26.22172, 3.53468], [26.22725, 3.52769], [26.24237, 3.52781], [26.24925, 3.51945], [26.26069, 3.51314], [26.27088, 3.49006], [26.28833, 3.47987], [26.29618, 3.46206], [26.29689, 3.44122], [26.30148, 3.43598], [26.32811, 3.44098], [26.33185, 3.43345], [26.34243, 3.43309], [26.34859, 3.43771], [26.35322, 3.43541], [26.35562, 3.42899], [26.36426, 3.42414], [26.36767, 3.42695], [26.36302, 3.41686], [26.35489, 3.41951], [26.35487, 3.41314], [26.3449, 3.4086], [26.34343, 3.39501], [26.34079, 3.39332], [26.34119, 3.38144], [26.34838, 3.37174], [26.3532, 3.37487], [26.3555, 3.3728], [26.35787, 3.37625], [26.36578, 3.36958], [26.36228, 3.36086], [26.37232, 3.35542], [26.37734, 3.3404], [26.37676, 3.32497], [26.38021, 3.32244], [26.3779, 3.31905], [26.38363, 3.3192], [26.3781, 3.31576], [26.38064, 3.30996], [26.37798, 3.30758], [26.3761, 3.30984], [26.37529, 3.30346], [26.37101, 3.30331], [26.3741, 3.29693], [26.3708, 3.29804], [26.37255, 3.2961], [26.36913, 3.2944], [26.37483, 3.28949], [26.37395, 3.2838], [26.36815, 3.28044], [26.36993, 3.27719], [26.36531, 3.27612], [26.36273, 3.27145], [26.36465, 3.26991], [26.35847, 3.26499], [26.35698, 3.25392], [26.36292, 3.24828], [26.36864, 3.24921], [26.36965, 3.24547], [26.37555, 3.24429], [26.37642, 3.24679], [26.37626, 3.24339], [26.38775, 3.23228], [26.3857, 3.22862], [26.39093, 3.23073], [26.39395, 3.22422], [26.39164, 3.22229], [26.39459, 3.21978], [26.41228, 3.21852], [26.41869, 3.20938], [26.42424, 3.21014], [26.43425, 3.20286], [26.43998, 3.20184], [26.44173, 3.20498], [26.44137, 3.20273], [26.44497, 3.20407], [26.44938, 3.2006], [26.45062, 3.19235], [26.45531, 3.18846], [26.44545, 3.17484], [26.45133, 3.16194], [26.44948, 3.15708], [26.44588, 3.15814], [26.44543, 3.15581], [26.45179, 3.15283], [26.44515, 3.14713], [26.44289, 3.13936], [26.44651, 3.13293], [26.44487, 3.13095], [26.45195, 3.12953], [26.44743, 3.11817], [26.4532, 3.10431], [26.45119, 3.10128], [26.46257, 3.09326], [26.46145, 3.08616], [26.46421, 3.08797], [26.4689, 3.07901], [26.48158, 3.07631], [26.48083, 3.06642], [26.48822, 3.06132], [26.48527, 3.05402], [26.48062, 3.05222], [26.48701, 3.04699], [26.48592, 3.04061], [26.48948, 3.03938], [26.49117, 3.03409], [26.4802, 3.01745], [26.46117, 3.00335], [26.4247, 2.94308], [26.40848, 2.93708], [26.39878, 2.94096], [26.38841, 2.93837], [26.37547, 2.9515], [26.33546, 2.94715], [26.33349, 2.9328], [26.31463, 2.87685], [26.31056, 2.84015], [26.28671, 2.81623], [26.26599, 2.78472], [26.22469, 2.74677], [26.22702, 2.72907], [26.21566, 2.72386], [26.20854, 2.72821], [26.20914, 2.73344], [26.20223, 2.7341], [26.19723, 2.72926], [26.19891, 2.73393], [26.19545, 2.7395], [26.1903, 2.73427], [26.17745, 2.73612], [26.17693, 2.72718], [26.16782, 2.72465], [26.15919, 2.68535], [26.14946, 2.66473], [26.14482, 2.60585], [26.11696, 2.60585], [26.11204, 2.58832], [26.11575, 2.55833], [26.12025, 2.54624], [26.1399, 2.5121], [26.14123, 2.50397], [26.17412, 2.47533], [26.17738, 2.42862], [26.16141, 2.35148], [26.19282, 2.31275], [26.16526, 2.32918], [26.15446, 2.32773], [26.11412, 2.30132], [26.11145, 2.2877], [26.08822, 2.27941], [26.08006, 2.27819], [26.05386, 2.28535], [26.04023, 2.28478], [26.02614, 2.27761], [25.99184, 2.27078], [25.94381, 2.27079], [25.87998, 2.25162], [25.86375, 2.25405], [25.83606, 2.265], [25.82054, 2.26458], [25.80998, 2.27515], [25.79284, 2.27433], [25.76232, 2.25796], [25.75191, 2.24206], [25.73334, 2.22795], [25.70387, 2.31683], [25.68099, 2.33885], [25.75844, 2.36371], [25.79109, 2.37011], [25.81099, 2.37844], [25.85027, 2.43323], [25.86727, 2.46674], [25.87393, 2.47395], [25.87345, 2.50622], [25.83862, 2.55561], [25.84899, 2.59405], [25.85479, 2.588], [25.85743, 2.59185], [25.85954, 2.58973], [25.862, 2.59239], [25.86708, 2.59146], [25.86604, 2.58807], [25.87462, 2.58239], [25.88079, 2.58386], [25.88916, 2.5775], [25.89838, 2.58026], [25.90955, 2.57638], [25.91727, 2.58018], [25.91823, 2.59102], [25.92867, 2.61646], [25.91623, 2.64916], [25.90312, 2.66552], [25.89296, 2.68639], [25.87468, 2.70662], [25.87093, 2.73516], [25.84887, 2.79692], [25.83747, 2.82123], [25.82594, 2.8311], [25.82218, 2.85007], [25.82057, 2.89027], [25.83788, 2.89702], [25.8583, 2.91643], [25.88634, 2.93371], [25.89274, 2.93699], [25.90413, 2.93608], [25.9087, 2.93933], [25.91312, 2.94665], [25.91446, 2.96289], [25.91876, 2.96898], [25.91577, 2.97446], [25.90686, 2.97873], [25.90431, 2.98709], [25.89883, 2.98872], [25.89574, 2.99574], [25.90013, 3.002], [25.90232, 2.99802], [25.9074, 2.99909], [25.91152, 2.99192], [25.92517, 3.00399], [25.91503, 3.01156], [25.90827, 3.00814], [25.89827, 3.01371], [25.90734, 3.04496], [25.90568, 3.06425], [25.89748, 3.09363], [25.88009, 3.12823], [25.88653, 3.13177], [25.88622, 3.13476], [25.87261, 3.13617], [25.87114, 3.14044], [25.87475, 3.15124], [25.86589, 3.15499], [25.86446, 3.16585], [25.85454, 3.17371], [25.84177, 3.17447], [25.83694, 3.18442], [25.83977, 3.19147], [25.84821, 3.18615], [25.85462, 3.19348], [25.85285, 3.19611], [25.84751, 3.19485], [25.84605, 3.22107], [25.83818, 3.21748], [25.83607, 3.22341], [25.82395, 3.23103], [25.81367, 3.25015], [25.80042, 3.25769], [25.79037, 3.25913], [25.78822, 3.26978], [25.78114, 3.27873], [25.77188, 3.27712], [25.76634, 3.28838], [25.75037, 3.2949], [25.7469, 3.30079], [25.75043, 3.32009], [25.74292, 3.31632], [25.73956, 3.32335], [25.73153, 3.32935], [25.73164, 3.33495], [25.71659, 3.34424], [25.71994, 3.34901], [25.71831, 3.35132], [25.70823, 3.33678], [25.70822, 3.3258], [25.69517, 3.32116], [25.70226, 3.29929], [25.69037, 3.28914], [25.70266, 3.27455], [25.7048, 3.264], [25.70261, 3.25769], [25.68694, 3.25394], [25.67605, 3.25917], [25.67236, 3.25437], [25.66033, 3.25943], [25.65576, 3.27147], [25.63844, 3.27035], [25.63189, 3.27996], [25.62239, 3.26038], [25.61912, 3.26596], [25.61169, 3.2678], [25.61307, 3.26215], [25.6052, 3.26146], [25.59634, 3.26843], [25.595, 3.25713], [25.58817, 3.25686], [25.5833, 3.26577], [25.57967, 3.26137], [25.57359, 3.26308], [25.55178, 3.29145], [25.53564, 3.28462], [25.53375, 3.29511], [25.53945, 3.30825], [25.53184, 3.3398], [25.53974, 3.36874], [25.53784, 3.37939], [25.5261, 3.37229], [25.48978, 3.35938], [25.47814, 3.36243], [25.46617, 3.35718], [25.46152, 3.34823], [25.4503, 3.33871], [25.4346, 3.33333], [25.41428, 3.35], [25.41395, 3.36352], [25.41093, 3.3643], [25.40816, 3.37167], [25.38489, 3.3586], [25.37975, 3.36404], [25.36678, 3.36948], [25.35718, 3.36265], [25.35112, 3.3636], [25.33546, 3.35641], [25.32378, 3.3342], [25.31488, 3.349], [25.29631, 3.36853], [25.2548, 3.40109], [25.24064, 3.39655], [25.21161, 3.39648], [25.18995, 3.3907], [25.18287, 3.4006], [25.19398, 3.42156], [25.1897, 3.43018], [25.18815, 3.44919], [25.19902, 3.44979], [25.20513, 3.45355], [25.21115, 3.47192], [25.23346, 3.49628], [25.25041, 3.54707], [25.2598, 3.55219], [25.27354, 3.54894], [25.28707, 3.54015], [25.29289, 3.52145], [25.30754, 3.5091], [25.3216, 3.52246], [25.32969, 3.52579], [25.3699, 3.53314], [25.39466, 3.54363], [25.42223, 3.54095], [25.4322, 3.53381], [25.44056, 3.52132], [25.4506, 3.51645], [25.46017, 3.51464], [25.46833, 3.51825], [25.49476, 3.5117], [25.50908, 3.52526], [25.51717, 3.54016], [25.54213, 3.54981], [25.56854, 3.55077], [25.59627, 3.58473], [25.62013, 3.59785], [25.65179, 3.60618], [25.67321, 3.60335], [25.69723, 3.60453], [25.70109, 3.59298], [25.70826, 3.58583], [25.72653, 3.57443], [25.7474, 3.57136], [25.75276, 3.56783], [25.75843, 3.55297], [25.77552, 3.5374], [25.78366, 3.52275], [25.81695, 3.52396], [25.83084, 3.53216], [25.84042, 3.54469], [25.84395, 3.55933], [25.84269, 3.57392], [25.8536, 3.60353], [25.85108, 3.62059], [25.85616, 3.66466], [25.85562, 3.69487], [25.87575, 3.70171], [25.89634, 3.70323], [25.90546, 3.71533], [25.93, 3.70151], [25.94339, 3.70417], [25.949, 3.69747], [25.97139, 3.7068], [25.99092, 3.73163], [26.00559, 3.73209], [26.01417, 3.71599], [26.02771, 3.70442], [26.04505, 3.7045], [26.06374, 3.68113], [26.07203, 3.67536], [26.08491, 3.67458], [26.09826, 3.66573], [26.11869, 3.66069]]]}}, {"type": "Feature", "properties": {"zone": "Gombari", "province": "Haut-Uele", "lat": 2.76396, "lon": 28.89314, "population": 122901}, "geometry": {"type": "Polygon", "coordinates": [[[29.22274, 3.43648], [29.22355, 3.42403], [29.21683, 3.41452], [29.21857, 3.40714], [29.23365, 3.40022], [29.24836, 3.38513], [29.24961, 3.37653], [29.26457, 3.37269], [29.26775, 3.36534], [29.27676, 3.36243], [29.28707, 3.34692], [29.28926, 3.33446], [29.29694, 3.32592], [29.29034, 3.31625], [29.29238, 3.30151], [29.31275, 3.29726], [29.31905, 3.2875], [29.32896, 3.28373], [29.33603, 3.28278], [29.34142, 3.28636], [29.35338, 3.28286], [29.36621, 3.28969], [29.37212, 3.28623], [29.38364, 3.29226], [29.39393, 3.2936], [29.41505, 3.28931], [29.42547, 3.28978], [29.42938, 3.29335], [29.43378, 3.29045], [29.44205, 3.30118], [29.4438, 3.29359], [29.44818, 3.29342], [29.45157, 3.29891], [29.45801, 3.29071], [29.45734, 3.29725], [29.46177, 3.30061], [29.47513, 3.28965], [29.48217, 3.29675], [29.48119, 3.30333], [29.48809, 3.30677], [29.4889, 3.29334], [29.48456, 3.28781], [29.4876, 3.2852], [29.49789, 3.28579], [29.50057, 3.273], [29.50745, 3.26807], [29.50575, 3.25916], [29.51282, 3.25386], [29.51044, 3.24493], [29.50397, 3.24276], [29.50246, 3.23786], [29.49584, 3.23447], [29.50152, 3.2285], [29.5083, 3.23447], [29.51102, 3.23112], [29.50357, 3.22168], [29.48939, 3.21469], [29.45963, 3.20814], [29.45065, 3.20775], [29.4419, 3.21155], [29.42206, 3.1998], [29.41758, 3.20614], [29.40687, 3.20693], [29.39699, 3.21165], [29.38081, 3.21136], [29.36533, 3.19669], [29.34272, 3.18353], [29.34951, 3.16029], [29.37375, 3.14274], [29.37089, 3.13725], [29.37784, 3.11362], [29.3783, 3.09786], [29.36803, 3.09606], [29.36355, 3.08091], [29.35956, 3.07932], [29.36222, 3.07624], [29.36023, 3.06815], [29.34964, 3.07216], [29.32002, 3.05321], [29.31503, 3.01198], [29.31775, 2.9979], [29.30849, 2.99047], [29.29518, 2.98752], [29.29391, 2.97888], [29.29789, 2.96483], [29.2978, 2.94934], [29.30334, 2.94188], [29.30061, 2.93492], [29.29276, 2.93307], [29.2926, 2.92019], [29.30736, 2.91371], [29.32375, 2.9121], [29.34087, 2.89829], [29.33545, 2.87542], [29.3394, 2.85883], [29.33856, 2.82444], [29.34333, 2.81672], [29.32122, 2.80469], [29.29416, 2.77394], [29.30028, 2.7622], [29.30892, 2.729], [29.32158, 2.70728], [29.31968, 2.68027], [29.31375, 2.66386], [29.31456, 2.64413], [29.31841, 2.63761], [29.31249, 2.60817], [29.30592, 2.60959], [29.2994, 2.61613], [29.30153, 2.62093], [29.2885, 2.6225], [29.28621, 2.62544], [29.28401, 2.62288], [29.27385, 2.62681], [29.27216, 2.62238], [29.26743, 2.62499], [29.24401, 2.62205], [29.2396, 2.62479], [29.24512, 2.62874], [29.24132, 2.63275], [29.23254, 2.62601], [29.2294, 2.63152], [29.22701, 2.62525], [29.21973, 2.62474], [29.22047, 2.61593], [29.21251, 2.62135], [29.20645, 2.621], [29.19843, 2.61601], [29.18436, 2.61405], [29.16636, 2.60211], [29.16345, 2.59835], [29.16202, 2.58135], [29.16732, 2.56994], [29.16365, 2.54754], [29.16894, 2.53817], [29.16976, 2.52024], [29.17791, 2.49742], [29.17872, 2.48317], [29.18954, 2.47781], [29.18138, 2.46925], [29.16375, 2.42429], [29.12143, 2.4331], [29.08, 2.42341], [29.03787, 2.40195], [29.02584, 2.38947], [29.03769, 2.35553], [29.01043, 2.31068], [29.00543, 2.31936], [28.99616, 2.3251], [28.99304, 2.33417], [28.97691, 2.29112], [28.97759, 2.28559], [28.96878, 2.27047], [28.85714, 2.29016], [28.81903, 2.29956], [28.79926, 2.30802], [28.78183, 2.30187], [28.77451, 2.30233], [28.76033, 2.31573], [28.73537, 2.31985], [28.70935, 2.3362], [28.70961, 2.33005], [28.7168, 2.31796], [28.69592, 2.3142], [28.67426, 2.30301], [28.66776, 2.28676], [28.67895, 2.26113], [28.6822, 2.24127], [28.68075, 2.23155], [28.67133, 2.23222], [28.64669, 2.24408], [28.63612, 2.24144], [28.62812, 2.26285], [28.61966, 2.26469], [28.61417, 2.26976], [28.60937, 2.26907], [28.60115, 2.29645], [28.59018, 2.31257], [28.5879, 2.32637], [28.58058, 2.33397], [28.40999, 2.25193], [28.39957, 2.25163], [28.37887, 2.29638], [28.34912, 2.32116], [28.3221, 2.33523], [28.33352, 2.34483], [28.35828, 2.34347], [28.36194, 2.35709], [28.34765, 2.36673], [28.35438, 2.3929], [28.34912, 2.40441], [28.34789, 2.41668], [28.36667, 2.45025], [28.3685, 2.4591], [28.36662, 2.4626], [28.34457, 2.46628], [28.33476, 2.47856], [28.33096, 2.4664], [28.32717, 2.46565], [28.31969, 2.47973], [28.3129, 2.48202], [28.3126, 2.49209], [28.31113, 2.48786], [28.30739, 2.48776], [28.30177, 2.49635], [28.29257, 2.49979], [28.27846, 2.51328], [28.27794, 2.5326], [28.30469, 2.57334], [28.30142, 2.58242], [28.29033, 2.58893], [28.29936, 2.59913], [28.30457, 2.61783], [28.31787, 2.6313], [28.32463, 2.64666], [28.35331, 2.68173], [28.35732, 2.67714], [28.36785, 2.64524], [28.42545, 2.67854], [28.43124, 2.68936], [28.42819, 2.7335], [28.44922, 2.74169], [28.46452, 2.74329], [28.47225, 2.77591], [28.4948, 2.81772], [28.5054, 2.82806], [28.51251, 2.82582], [28.52187, 2.83758], [28.53738, 2.84211], [28.53131, 2.86649], [28.52018, 2.87902], [28.52196, 2.8831], [28.53968, 2.88678], [28.54452, 2.89215], [28.55057, 2.89118], [28.55113, 2.88376], [28.55759, 2.87691], [28.55168, 2.86053], [28.56367, 2.85521], [28.56603, 2.85066], [28.55888, 2.83777], [28.55736, 2.82167], [28.56271, 2.80782], [28.56869, 2.81811], [28.57714, 2.81875], [28.57964, 2.82956], [28.58591, 2.83502], [28.58487, 2.84137], [28.58958, 2.83981], [28.59511, 2.84559], [28.60373, 2.84678], [28.6053, 2.84974], [28.59904, 2.86034], [28.60858, 2.86272], [28.61233, 2.86721], [28.63406, 2.9179], [28.64597, 2.93224], [28.65512, 2.95279], [28.65694, 2.97786], [28.65138, 2.98282], [28.64585, 2.99785], [28.64715, 3.00334], [28.65694, 3.01699], [28.66021, 3.02956], [28.6661, 3.0356], [28.67085, 3.05471], [28.68443, 3.07047], [28.71887, 3.08187], [28.72729, 3.09501], [28.73818, 3.09837], [28.74268, 3.10458], [28.75494, 3.10876], [28.77151, 3.12249], [28.7847, 3.12827], [28.84116, 3.1347], [28.85494, 3.13197], [28.8673, 3.11616], [28.89402, 3.11024], [28.92462, 3.09538], [28.94385, 3.09376], [28.96469, 3.08331], [28.98188, 3.08719], [28.99406, 3.11009], [29.02431, 3.14412], [29.02801, 3.15498], [29.03798, 3.16506], [29.04383, 3.18136], [29.05173, 3.19107], [29.0508, 3.19978], [29.04352, 3.20908], [29.0379, 3.21138], [29.03102, 3.23157], [29.02207, 3.24204], [29.01265, 3.24322], [29.01267, 3.25568], [29.02241, 3.25934], [29.04587, 3.2796], [29.12045, 3.36989], [29.12125, 3.38134], [29.12636, 3.38311], [29.12743, 3.38989], [29.13408, 3.39725], [29.12882, 3.40646], [29.12998, 3.42004], [29.12609, 3.42373], [29.12154, 3.4502], [29.1392, 3.46929], [29.14653, 3.46997], [29.15476, 3.48079], [29.16076, 3.47324], [29.17747, 3.46488], [29.19149, 3.44663], [29.20534, 3.44318], [29.21055, 3.43255], [29.21398, 3.43131], [29.22274, 3.43648]]]}}, {"type": "Feature", "properties": {"zone": "Kayna", "province": "Nord-Kivu", "lat": -0.61522, "lon": 29.11517, "population": 322628}, "geometry": {"type": "Polygon", "coordinates": [[[29.34059, -0.51801], [29.34013, -0.5306], [29.3456, -0.54233], [29.34334, -0.5563], [29.33568, -0.56003], [29.32697, -0.5558], [29.31721, -0.56017], [29.3049, -0.57771], [29.3048, -0.59222], [29.29044, -0.61953], [29.28979, -0.62906], [29.296, -0.64305], [29.30244, -0.64275], [29.29107, -0.65965], [29.30288, -0.66212], [29.30912, -0.65583], [29.31353, -0.66023], [29.30702, -0.68092], [29.308, -0.69036], [29.29936, -0.69761], [29.29157, -0.69847], [29.29131, -0.71197], [29.28444, -0.71622], [29.27726, -0.73559], [29.26616, -0.73895], [29.26443, -0.74524], [29.26166, -0.74542], [29.25403, -0.73768], [29.23902, -0.73737], [29.23616, -0.73206], [29.23451, -0.73462], [29.22799, -0.73126], [29.22615, -0.73331], [29.22145, -0.71979], [29.19115, -0.71305], [29.18908, -0.71104], [29.19308, -0.70448], [29.18538, -0.7007], [29.17457, -0.70134], [29.15087, -0.71434], [29.12987, -0.70646], [29.11839, -0.72544], [29.11781, -0.74333], [29.10815, -0.76126], [29.09316, -0.77065], [29.0905, -0.77852], [29.08572, -0.77648], [29.07902, -0.7979], [29.07438, -0.80002], [29.07379, -0.80924], [29.07014, -0.81177], [29.07079, -0.8187], [29.06452, -0.82644], [29.05584, -0.81599], [29.05491, -0.80461], [29.05105, -0.8053], [29.05158, -0.79488], [29.04653, -0.78402], [29.0494, -0.78255], [29.04583, -0.78009], [29.04575, -0.7715], [29.03677, -0.76366], [29.01744, -0.77205], [29.00817, -0.76705], [29.00662, -0.75264], [28.99922, -0.74838], [28.99936, -0.74398], [28.98126, -0.73339], [28.9853, -0.7213], [28.99116, -0.71578], [28.98782, -0.70235], [28.98298, -0.69652], [28.99084, -0.68337], [29.00039, -0.68763], [29.00058, -0.68235], [28.98956, -0.67185], [28.98768, -0.65447], [28.9787, -0.64218], [28.96765, -0.63392], [28.96992, -0.61707], [28.96738, -0.6082], [28.95306, -0.59875], [28.95291, -0.59123], [28.9365, -0.57245], [28.90673, -0.56541], [28.90199, -0.56121], [28.88706, -0.56278], [28.8697, -0.5597], [28.87718, -0.53623], [28.86329, -0.50782], [28.8636, -0.50058], [28.87415, -0.48991], [28.8854, -0.48775], [28.89747, -0.50225], [28.89706, -0.50831], [28.90058, -0.50926], [28.92373, -0.50084], [28.93141, -0.4942], [28.93694, -0.49448], [28.94811, -0.48322], [28.97184, -0.49206], [28.99291, -0.5072], [29.0018, -0.50595], [29.01781, -0.5121], [29.0236, -0.50971], [29.03162, -0.51641], [29.04447, -0.51325], [29.04973, -0.5189], [29.04907, -0.52627], [29.06405, -0.5392], [29.06853, -0.53702], [29.06888, -0.52867], [29.07781, -0.51747], [29.07511, -0.50932], [29.08577, -0.50039], [29.08366, -0.49227], [29.10152, -0.47674], [29.102, -0.46463], [29.10962, -0.46639], [29.12042, -0.48292], [29.11958, -0.48958], [29.12208, -0.49208], [29.13536, -0.49227], [29.1393, -0.49536], [29.14549, -0.49195], [29.15351, -0.49328], [29.16264, -0.50709], [29.15965, -0.52031], [29.16129, -0.52709], [29.16524, -0.52932], [29.16057, -0.5317], [29.16256, -0.5383], [29.16608, -0.54165], [29.17324, -0.53923], [29.17976, -0.54683], [29.19579, -0.54863], [29.19066, -0.5431], [29.18792, -0.52368], [29.1909, -0.50811], [29.20488, -0.50631], [29.21368, -0.48982], [29.21832, -0.49078], [29.21972, -0.49481], [29.22775, -0.49096], [29.23207, -0.49588], [29.22906, -0.49983], [29.22988, -0.50579], [29.23884, -0.50026], [29.25184, -0.50286], [29.25398, -0.51144], [29.25971, -0.50458], [29.26788, -0.50657], [29.27472, -0.5125], [29.28025, -0.53017], [29.30054, -0.52771], [29.31022, -0.52114], [29.31883, -0.52691], [29.32696, -0.52657], [29.34059, -0.51801]]]}}, {"type": "Feature", "properties": {"zone": "Manguredjipa", "province": "Nord-Kivu", "lat": 0.31165, "lon": 28.44346, "population": 68014}, "geometry": {"type": "Polygon", "coordinates": [[[29.06652, 0.61087], [29.06452, 0.60282], [29.05753, 0.59805], [29.06346, 0.59231], [29.05557, 0.58177], [29.05756, 0.57719], [29.05204, 0.57494], [29.05397, 0.56866], [29.04925, 0.56316], [29.05508, 0.5579], [29.04636, 0.55694], [29.04835, 0.55206], [29.04416, 0.55028], [29.04191, 0.53986], [29.03162, 0.53779], [29.03359, 0.52932], [29.02427, 0.52683], [29.02249, 0.51399], [29.01794, 0.50806], [29.01989, 0.49778], [29.01368, 0.4919], [29.01376, 0.48437], [29.02401, 0.48012], [29.02379, 0.46729], [29.02705, 0.46728], [29.02776, 0.46193], [29.01373, 0.45111], [29.01392, 0.44536], [29.00552, 0.43465], [29.00669, 0.43036], [28.99953, 0.4245], [29.00704, 0.41322], [29.00185, 0.40349], [29.00289, 0.3931], [28.99204, 0.39274], [28.99733, 0.38835], [29.00488, 0.36139], [29.00344, 0.34611], [28.99871, 0.34328], [29.0041, 0.33481], [28.99703, 0.32813], [28.99646, 0.31744], [29.00096, 0.31299], [28.9731, 0.31007], [28.9669, 0.31464], [28.9645, 0.32215], [28.96736, 0.32177], [28.96475, 0.32476], [28.96748, 0.33057], [28.95788, 0.33458], [28.94956, 0.33407], [28.93862, 0.34647], [28.90409, 0.34576], [28.8952, 0.35346], [28.89574, 0.36102], [28.87974, 0.37036], [28.87738, 0.363], [28.86827, 0.35938], [28.86656, 0.34555], [28.86014, 0.34664], [28.856, 0.34194], [28.8483, 0.34158], [28.85125, 0.33026], [28.85426, 0.32854], [28.85424, 0.31532], [28.84125, 0.30292], [28.83939, 0.29276], [28.82216, 0.28047], [28.81579, 0.26906], [28.8056, 0.26375], [28.78921, 0.23585], [28.77413, 0.23075], [28.79103, 0.2003], [28.77819, 0.18713], [28.77071, 0.18807], [28.75994, 0.15334], [28.79718, 0.16437], [28.82721, 0.15639], [28.83453, 0.14532], [28.84316, 0.1432], [28.84153, 0.13516], [28.83582, 0.12988], [28.81403, 0.1262], [28.81618, 0.1058], [28.79838, 0.10396], [28.78487, 0.08181], [28.78499, 0.07663], [28.81439, 0.05702], [28.80441, 0.04051], [28.7975, 0.00788], [28.7893, 0.0033], [28.78815, -0.00735], [28.78317, -0.00857], [28.77993, -0.01566], [28.77729, -0.01295], [28.76737, -0.01402], [28.756, -0.02043], [28.76094, -0.02929], [28.75884, -0.03612], [28.76297, -0.04475], [28.75929, -0.04338], [28.75218, -0.0471], [28.7523, -0.05109], [28.74745, -0.05407], [28.74671, -0.0489], [28.743, -0.05026], [28.74236, -0.04757], [28.73303, -0.04464], [28.71753, -0.05647], [28.71057, -0.05077], [28.70257, -0.05275], [28.7031, -0.05698], [28.68302, -0.053], [28.67333, -0.05406], [28.67104, -0.04769], [28.67328, -0.04414], [28.66733, -0.04467], [28.66026, -0.03981], [28.66144, -0.0314], [28.65572, -0.02907], [28.6557, -0.03287], [28.64645, -0.03445], [28.64167, -0.02346], [28.63906, -0.03026], [28.62497, -0.02771], [28.61921, -0.03842], [28.62184, -0.03068], [28.61974, -0.02465], [28.62552, -0.02309], [28.62137, -0.01592], [28.61702, -0.01612], [28.61675, -0.01255], [28.6009, -0.00519], [28.59536, -0.01594], [28.58932, -0.01303], [28.57209, -0.01369], [28.56977, -0.01686], [28.57498, -0.02239], [28.56761, -0.02416], [28.55915, -0.01992], [28.55913, -0.02496], [28.55139, -0.02437], [28.55068, -0.02717], [28.54066, -0.02952], [28.53922, -0.04001], [28.53224, -0.04045], [28.5288, -0.04641], [28.52321, -0.0443], [28.52094, -0.04827], [28.51611, -0.04596], [28.51794, -0.05056], [28.50253, -0.05034], [28.50211, -0.04572], [28.4951, -0.04558], [28.49518, -0.05251], [28.48912, -0.05095], [28.48639, -0.05524], [28.47987, -0.05169], [28.46502, -0.05436], [28.45715, -0.0639], [28.45666, -0.06991], [28.46043, -0.07569], [28.45513, -0.08053], [28.43995, -0.08571], [28.44118, -0.08974], [28.4341, -0.09284], [28.43133, -0.08974], [28.42601, -0.09332], [28.41894, -0.0915], [28.41828, -0.09844], [28.40218, -0.09365], [28.39939, -0.08901], [28.39626, -0.08868], [28.39495, -0.09332], [28.3806, -0.09213], [28.37868, -0.0958], [28.368, -0.09894], [28.36504, -0.10953], [28.36143, -0.10043], [28.34861, -0.09745], [28.34088, -0.09067], [28.33694, -0.09894], [28.32445, -0.10473], [28.31886, -0.10093], [28.31492, -0.10258], [28.31755, -0.11466], [28.3118, -0.11681], [28.30933, -0.1135], [28.29914, -0.11979], [28.29964, -0.12277], [28.29339, -0.12194], [28.29454, -0.12525], [28.28665, -0.13419], [28.27433, -0.13683], [28.27515, -0.14279], [28.2701, -0.14036], [28.26485, -0.14427], [28.26302, -0.14105], [28.25625, -0.14606], [28.25657, -0.15134], [28.25188, -0.14853], [28.24453, -0.15178], [28.23284, -0.14577], [28.22063, -0.14945], [28.21743, -0.14255], [28.21549, -0.14667], [28.20724, -0.14733], [28.19935, -0.14092], [28.17138, -0.15015], [28.1682, -0.16203], [28.16299, -0.16142], [28.15752, -0.16652], [28.14945, -0.16382], [28.14211, -0.17106], [28.12965, -0.16245], [28.12373, -0.15198], [28.1322, -0.12548], [28.1269, -0.10911], [28.12827, -0.10016], [28.12456, -0.09574], [28.12332, -0.07648], [28.12657, -0.05948], [28.12162, -0.05054], [28.11464, -0.01494], [28.12618, 0.01668], [28.12131, 0.01854], [28.12008, 0.0264], [28.12713, 0.03069], [28.12136, 0.04429], [28.12738, 0.0536], [28.12939, 0.06878], [28.12373, 0.07541], [28.12248, 0.08644], [28.13126, 0.10101], [28.12646, 0.10914], [28.1575, 0.12156], [28.15547, 0.12973], [28.16081, 0.13008], [28.1654, 0.13527], [28.16663, 0.1431], [28.18035, 0.14874], [28.18219, 0.1563], [28.16456, 0.1872], [28.14709, 0.19146], [28.1535, 0.19699], [28.15323, 0.2148], [28.14338, 0.23829], [28.13644, 0.24321], [28.12666, 0.23884], [28.1205, 0.24119], [28.12044, 0.24863], [28.11585, 0.25669], [28.10364, 0.25607], [28.09636, 0.26818], [28.09645, 0.27455], [28.08567, 0.27816], [28.08879, 0.28633], [28.07997, 0.29495], [28.0781, 0.30553], [28.07336, 0.30753], [28.06688, 0.30421], [28.06157, 0.30765], [28.05653, 0.32113], [28.06164, 0.3325], [28.05802, 0.34044], [28.0658, 0.34987], [28.0579, 0.35637], [28.05999, 0.36402], [28.05659, 0.37877], [28.05646, 0.40202], [28.03269, 0.40318], [28.03165, 0.40674], [28.03806, 0.41259], [28.03885, 0.41851], [28.02586, 0.42992], [28.03826, 0.43798], [28.0435, 0.43541], [28.04204, 0.45205], [28.02697, 0.45195], [28.01869, 0.45935], [28.01069, 0.4568], [28.01508, 0.46753], [28.0139, 0.48481], [28.00817, 0.4863], [28.00646, 0.48127], [27.99635, 0.48136], [27.98931, 0.49296], [27.97659, 0.48779], [27.94676, 0.48893], [27.93255, 0.49682], [27.92256, 0.49089], [27.90122, 0.50599], [27.89814, 0.50408], [27.89705, 0.49183], [27.89438, 0.48967], [27.88878, 0.4925], [27.88919, 0.49877], [27.88559, 0.5008], [27.87722, 0.49785], [27.86904, 0.4879], [27.8615, 0.48822], [27.85297, 0.49389], [27.8338, 0.49241], [27.81236, 0.50588], [27.80449, 0.5151], [27.804, 0.51993], [27.79075, 0.5288], [27.85498, 0.5574], [27.89297, 0.56187], [27.92315, 0.59876], [27.95479, 0.62156], [27.96879, 0.62115], [27.9774, 0.61334], [27.993, 0.61287], [28.00939, 0.63323], [28.01769, 0.63598], [28.02753, 0.63296], [28.04282, 0.63964], [28.0451, 0.6509], [28.06176, 0.66331], [28.06815, 0.66423], [28.06952, 0.67641], [28.07385, 0.67894], [28.09598, 0.67344], [28.1591, 0.68522], [28.2485, 0.68802], [28.31431, 0.697], [28.33162, 0.69767], [28.33965, 0.6872], [28.34598, 0.68999], [28.35188, 0.68437], [28.36218, 0.68154], [28.36094, 0.67864], [28.36428, 0.68113], [28.36624, 0.66504], [28.37952, 0.66815], [28.38334, 0.66034], [28.38634, 0.66204], [28.39387, 0.65502], [28.40274, 0.65631], [28.40546, 0.64968], [28.41037, 0.64923], [28.41306, 0.63762], [28.4269, 0.64051], [28.43214, 0.63306], [28.43594, 0.63638], [28.44165, 0.63455], [28.44484, 0.62906], [28.44198, 0.62522], [28.44657, 0.6246], [28.45114, 0.61488], [28.47201, 0.59965], [28.47629, 0.60148], [28.47785, 0.59754], [28.47445, 0.59193], [28.48246, 0.59069], [28.48554, 0.58233], [28.4908, 0.58135], [28.49509, 0.57578], [28.50419, 0.57382], [28.5089, 0.57618], [28.5007, 0.56832], [28.49854, 0.56077], [28.50078, 0.55818], [28.49408, 0.54737], [28.49818, 0.54838], [28.506, 0.53657], [28.51289, 0.5439], [28.51663, 0.54009], [28.52325, 0.54491], [28.52895, 0.54215], [28.55474, 0.54421], [28.55428, 0.53249], [28.55885, 0.52881], [28.55496, 0.51962], [28.57802, 0.52742], [28.59194, 0.54028], [28.60495, 0.53821], [28.61568, 0.54693], [28.63165, 0.54486], [28.63873, 0.55427], [28.6465, 0.55864], [28.65358, 0.57242], [28.65739, 0.57242], [28.66037, 0.58136], [28.67428, 0.57155], [28.68987, 0.57072], [28.80343, 0.57652], [28.90092, 0.58763], [28.93208, 0.58205], [28.97181, 0.5629], [28.99141, 0.56032], [29.00548, 0.56342], [29.01701, 0.58389], [29.04615, 0.58952], [29.06652, 0.61087]]]}}, {"type": "Feature", "properties": {"zone": "Mutwanga", "province": "Nord-Kivu", "lat": 0.28582, "lon": 29.70694, "population": 255278}, "geometry": {"type": "Polygon", "coordinates": [[[29.9207, 0.44869], [29.87241, 0.38806], [29.86198, 0.34256], [29.85871, 0.33913], [29.858, 0.32503], [29.82417, 0.17258], [29.8147, 0.16288], [29.7894, 0.1692], [29.78506, 0.16516], [29.78027, 0.16771], [29.77336, 0.16271], [29.77015, 0.16409], [29.76805, 0.14906], [29.74981, 0.13159], [29.74432, 0.13091], [29.74342, 0.12579], [29.73643, 0.12497], [29.74008, 0.12026], [29.73413, 0.10408], [29.73544, 0.08878], [29.7302, 0.07935], [29.7171, 0.07435], [29.72103, 0.05865], [29.71697, 0.05279], [29.72016, 0.04108], [29.71627, 0.03478], [29.72199, 0.03001], [29.72128, 0.02137], [29.72798, 0.01702], [29.72346, 0.01114], [29.72792, 0.00708], [29.72877, 3e-05], [29.72593, -0.00288], [29.73254, -0.0113], [29.73358, -0.02258], [29.74094, -0.02261], [29.7448, -0.028], [29.73966, -0.03629], [29.72969, -0.04173], [29.73373, -0.06799], [29.72959, -0.07339], [29.73176, -0.08551], [29.70649, -0.08322], [29.68049, -0.11629], [29.6606, -0.12548], [29.6581, -0.10309], [29.65271, -0.09912], [29.64726, -0.10076], [29.64371, -0.10735], [29.62873, -0.10581], [29.62955, -0.09338], [29.63421, -0.08996], [29.63643, -0.08093], [29.63424, -0.06327], [29.64294, -0.05156], [29.64601, -0.04121], [29.63541, -0.03483], [29.61928, -0.03143], [29.61869, -0.02715], [29.6223, 0.00819], [29.6304, 0.01131], [29.63431, 0.02378], [29.63162, 0.02875], [29.64014, 0.03805], [29.6502, 0.07701], [29.64236, 0.08405], [29.63732, 0.09769], [29.63914, 0.12379], [29.63548, 0.13571], [29.63873, 0.14133], [29.63811, 0.14971], [29.63282, 0.15495], [29.63168, 0.16984], [29.62715, 0.17499], [29.62994, 0.17789], [29.63869, 0.17463], [29.64881, 0.1768], [29.65696, 0.18683], [29.64977, 0.19368], [29.64356, 0.18947], [29.64032, 0.19659], [29.63312, 0.19423], [29.63393, 0.20067], [29.62777, 0.20459], [29.63341, 0.21531], [29.6292, 0.23039], [29.6258, 0.22855], [29.62125, 0.2308], [29.61226, 0.22133], [29.60918, 0.22646], [29.61312, 0.23301], [29.60754, 0.24202], [29.60237, 0.24258], [29.59717, 0.23457], [29.59408, 0.235], [29.59448, 0.25248], [29.58731, 0.25332], [29.57937, 0.24895], [29.56383, 0.25455], [29.56351, 0.26339], [29.56045, 0.26473], [29.56266, 0.27977], [29.55903, 0.28199], [29.55871, 0.28648], [29.56627, 0.29203], [29.5649, 0.30001], [29.56064, 0.30133], [29.55512, 0.31197], [29.54897, 0.31364], [29.5442, 0.32028], [29.53318, 0.31939], [29.53345, 0.31574], [29.51546, 0.31617], [29.51351, 0.32958], [29.51073, 0.33172], [29.51408, 0.33968], [29.50061, 0.35055], [29.50779, 0.36949], [29.52106, 0.37792], [29.52274, 0.38513], [29.52931, 0.38848], [29.54185, 0.40609], [29.5455, 0.40781], [29.54801, 0.40165], [29.55204, 0.40809], [29.55644, 0.4093], [29.55932, 0.42508], [29.56882, 0.41613], [29.57575, 0.42498], [29.58, 0.42583], [29.58784, 0.44235], [29.58597, 0.44555], [29.58972, 0.46757], [29.59562, 0.4727], [29.61519, 0.47788], [29.62104, 0.48602], [29.64126, 0.48929], [29.64898, 0.48762], [29.65921, 0.50927], [29.6464, 0.51208], [29.64859, 0.51722], [29.6456, 0.52362], [29.64649, 0.53214], [29.65536, 0.54462], [29.66418, 0.54022], [29.66659, 0.54392], [29.66467, 0.55148], [29.67036, 0.55387], [29.67069, 0.55883], [29.67782, 0.5575], [29.67697, 0.56363], [29.67278, 0.56497], [29.67835, 0.56907], [29.67686, 0.56549], [29.68241, 0.56556], [29.68713, 0.55646], [29.69059, 0.55952], [29.69514, 0.55572], [29.70221, 0.55827], [29.70407, 0.55316], [29.70778, 0.55536], [29.71947, 0.55347], [29.7224, 0.54551], [29.73602, 0.54898], [29.73542, 0.54588], [29.73934, 0.54315], [29.73678, 0.53449], [29.74427, 0.53082], [29.74739, 0.52324], [29.75567, 0.52168], [29.75982, 0.52524], [29.76288, 0.52276], [29.77371, 0.5252], [29.77442, 0.52099], [29.77851, 0.52126], [29.79456, 0.5055], [29.79811, 0.50666], [29.80928, 0.49588], [29.81374, 0.49581], [29.81483, 0.48884], [29.81797, 0.49093], [29.81883, 0.48849], [29.82499, 0.4884], [29.82454, 0.48115], [29.83381, 0.47926], [29.84113, 0.47231], [29.84512, 0.47519], [29.84909, 0.46605], [29.85736, 0.46092], [29.86304, 0.45204], [29.87873, 0.45254], [29.88367, 0.45865], [29.88333, 0.46864], [29.89193, 0.45458], [29.90031, 0.45881], [29.9207, 0.44869]]]}}, {"type": "Feature", "properties": {"zone": "Tshopo", "province": "Tshopo", "lat": 0.93119, "lon": 25.5494, "population": 172885}, "geometry": {"type": "Polygon", "coordinates": [[[25.5805, 0.72532], [25.57498, 0.7281], [25.56286, 0.71928], [25.55894, 0.71289], [25.56415, 0.70647], [25.56188, 0.6859], [25.55211, 0.67393], [25.53665, 0.66553], [25.53362, 0.67043], [25.53885, 0.68195], [25.52961, 0.69615], [25.53157, 0.70865], [25.51335, 0.71457], [25.51353, 0.70053], [25.50831, 0.69422], [25.49475, 0.68871], [25.48421, 0.69481], [25.47251, 0.69243], [25.47117, 0.70858], [25.47552, 0.71419], [25.47564, 0.72193], [25.46234, 0.72925], [25.44623, 0.73167], [25.43089, 0.7274], [25.41564, 0.73916], [25.40169, 0.70634], [25.38836, 0.70522], [25.38831, 0.70738], [25.37112, 0.71133], [25.36535, 0.69689], [25.37738, 0.68962], [25.37907, 0.67954], [25.37085, 0.67306], [25.34567, 0.6739], [25.34267, 0.66714], [25.34635, 0.65628], [25.34309, 0.65278], [25.33823, 0.65354], [25.33478, 0.65913], [25.33869, 0.6741], [25.33515, 0.68137], [25.32842, 0.68407], [25.32013, 0.67886], [25.31958, 0.68666], [25.30371, 0.69654], [25.28888, 0.69935], [25.27868, 0.69122], [25.25335, 0.69028], [25.25345, 0.68463], [25.2665, 0.67956], [25.26396, 0.66758], [25.24075, 0.66536], [25.23173, 0.65404], [25.2316, 0.64404], [25.22813, 0.64499], [25.2267, 0.63697], [25.22045, 0.63093], [25.22897, 0.62286], [25.23088, 0.60577], [25.21131, 0.60379], [25.2031, 0.58578], [25.18812, 0.57493], [25.20544, 0.56005], [25.20337, 0.55672], [25.19552, 0.55532], [25.19644, 0.53715], [25.18646, 0.53602], [25.18941, 0.51847], [25.17792, 0.52334], [25.17234, 0.53484], [25.17512, 0.5424], [25.16771, 0.55105], [25.13249, 0.56083], [25.10964, 0.56185], [25.11724, 0.56919], [25.12088, 0.58123], [25.11006, 0.60456], [25.11036, 0.6129], [25.12449, 0.63828], [25.14685, 0.64104], [25.15698, 0.64572], [25.15846, 0.6354], [25.17827, 0.65082], [25.17691, 0.65632], [25.18024, 0.66052], [25.19361, 0.66303], [25.20399, 0.65704], [25.21569, 0.65859], [25.22129, 0.67342], [25.22748, 0.67159], [25.23778, 0.67871], [25.23556, 0.6898], [25.24145, 0.70494], [25.23847, 0.70752], [25.22951, 0.70238], [25.22648, 0.70563], [25.22927, 0.72705], [25.23788, 0.73534], [25.25526, 0.7321], [25.2538, 0.74509], [25.24127, 0.7587], [25.24024, 0.77181], [25.25206, 0.7647], [25.27414, 0.7684], [25.27943, 0.75883], [25.28994, 0.75385], [25.30182, 0.75842], [25.31258, 0.76449], [25.31995, 0.79174], [25.32742, 0.80026], [25.3527, 0.80315], [25.38186, 0.83496], [25.36304, 0.83707], [25.34221, 0.88048], [25.31194, 0.88491], [25.31038, 0.88855], [25.31809, 0.90988], [25.30356, 0.92688], [25.28761, 0.95669], [25.36911, 1.00264], [25.48389, 1.05158], [25.497, 1.06234], [25.50202, 1.05878], [25.55406, 1.10433], [25.57449, 1.16669], [25.57249, 1.18032], [25.50598, 1.19897], [25.50981, 1.20321], [25.52419, 1.21476], [25.53016, 1.21553], [25.54712, 1.20776], [25.5678, 1.22095], [25.57664, 1.24179], [25.58431, 1.24597], [25.64011, 1.24517], [25.65794, 1.2279], [25.65878, 1.19836], [25.67943, 1.15836], [25.68464, 1.15429], [25.70507, 1.14968], [25.72833, 1.15733], [25.73141, 1.1676], [25.73905, 1.1741], [25.74433, 1.18967], [25.74511, 1.20589], [25.74092, 1.2291], [25.76909, 1.2536], [25.78191, 1.25344], [25.78517, 1.24662], [25.79235, 1.24451], [25.79595, 1.231], [25.81028, 1.20914], [25.81563, 1.19397], [25.80786, 1.18159], [25.80888, 1.16986], [25.78073, 1.13443], [25.77319, 1.10464], [25.77696, 1.09371], [25.79393, 1.08202], [25.81278, 1.05751], [25.8437, 1.05412], [25.86256, 1.03451], [25.86859, 1.00057], [25.85351, 0.94929], [25.8256, 0.89198], [25.79091, 0.86709], [25.74717, 0.84975], [25.73209, 0.85427], [25.65554, 0.90592], [25.64438, 0.9099], [25.62417, 0.90772], [25.61513, 0.91587], [25.6084, 0.91764], [25.6005, 0.91591], [25.58901, 0.90571], [25.56324, 0.8974], [25.54562, 0.90156], [25.54095, 0.89914], [25.52329, 0.90172], [25.50821, 0.89349], [25.48821, 0.90018], [25.44287, 0.89969], [25.43956, 0.89642], [25.43877, 0.8888], [25.44446, 0.88473], [25.47982, 0.88022], [25.48297, 0.87715], [25.47897, 0.83998], [25.4676, 0.82401], [25.45232, 0.83141], [25.44339, 0.82841], [25.44706, 0.8234], [25.44484, 0.82106], [25.44845, 0.8193], [25.43948, 0.81305], [25.43912, 0.80878], [25.44581, 0.80398], [25.4602, 0.80297], [25.47754, 0.80781], [25.49133, 0.822], [25.52165, 0.83273], [25.59342, 0.84643], [25.60024, 0.84333], [25.62473, 0.84215], [25.62147, 0.80004], [25.61296, 0.79132], [25.61763, 0.78791], [25.61888, 0.78022], [25.62536, 0.7786], [25.61918, 0.7719], [25.62705, 0.76908], [25.62298, 0.7633], [25.62844, 0.76465], [25.62505, 0.75897], [25.62941, 0.75904], [25.62416, 0.7568], [25.62694, 0.75272], [25.6231, 0.75291], [25.62628, 0.74622], [25.63113, 0.74754], [25.62727, 0.74372], [25.63193, 0.74148], [25.62965, 0.73783], [25.62576, 0.73985], [25.62722, 0.73651], [25.62439, 0.7325], [25.61779, 0.7309], [25.62076, 0.72647], [25.6152, 0.72736], [25.6152, 0.72293], [25.60997, 0.72359], [25.61072, 0.71855], [25.60634, 0.72076], [25.59705, 0.71775], [25.60082, 0.72444], [25.59866, 0.73198], [25.58798, 0.72897], [25.58324, 0.73085], [25.5805, 0.72532]]]}}, {"type": "Feature", "properties": {"zone": "Viadana", "province": "Bas-Uele", "lat": 3.0318, "lon": 27.32922, "population": 187873}, "geometry": {"type": "Polygon", "coordinates": [[[27.712, 3.30871], [27.70146, 3.28803], [27.70025, 3.27449], [27.7042, 3.26005], [27.69782, 3.247], [27.6997, 3.23153], [27.69555, 3.22088], [27.68412, 3.20815], [27.70258, 3.1926], [27.71923, 3.17233], [27.72793, 3.15183], [27.71906, 3.13394], [27.71911, 3.11928], [27.71526, 3.10593], [27.6958, 3.08737], [27.69826, 3.07257], [27.69497, 3.06127], [27.69624, 3.04658], [27.6818, 3.03709], [27.6688, 3.03689], [27.6424, 3.04909], [27.60436, 3.02895], [27.58623, 3.03545], [27.55345, 3.03532], [27.54248, 2.99754], [27.54399, 2.98347], [27.56235, 2.96263], [27.55883, 2.9547], [27.58825, 2.94178], [27.62731, 2.93036], [27.62922, 2.93484], [27.64336, 2.93177], [27.64508, 2.91763], [27.65002, 2.9147], [27.65536, 2.90406], [27.65653, 2.89838], [27.64403, 2.89388], [27.63363, 2.90453], [27.61937, 2.90262], [27.61776, 2.89974], [27.61391, 2.87674], [27.63324, 2.87096], [27.63495, 2.85956], [27.63266, 2.84422], [27.61466, 2.83463], [27.61297, 2.82298], [27.59965, 2.82192], [27.57867, 2.84403], [27.56352, 2.82755], [27.55804, 2.83592], [27.54022, 2.84525], [27.5317, 2.83727], [27.52039, 2.83249], [27.50637, 2.83228], [27.48457, 2.81593], [27.4637, 2.81023], [27.45512, 2.7982], [27.45484, 2.78521], [27.4601, 2.77088], [27.45765, 2.76733], [27.4462, 2.76619], [27.44062, 2.77268], [27.42747, 2.77388], [27.39781, 2.76253], [27.36582, 2.79418], [27.35778, 2.81625], [27.34966, 2.82111], [27.34407, 2.8164], [27.34355, 2.79203], [27.33798, 2.7864], [27.33949, 2.78212], [27.32974, 2.77784], [27.3216, 2.75838], [27.30453, 2.77657], [27.29379, 2.78308], [27.29426, 2.80419], [27.27733, 2.81393], [27.25666, 2.81018], [27.21438, 2.8472], [27.20279, 2.86169], [27.19309, 2.86598], [27.19077, 2.86132], [27.18376, 2.86298], [27.18176, 2.85687], [27.18999, 2.83661], [27.19056, 2.81505], [27.16745, 2.78546], [27.1481, 2.78215], [27.10465, 2.78401], [27.07207, 2.7466], [27.04245, 2.72214], [27.01053, 2.72588], [27.0001, 2.72173], [26.99928, 2.71461], [26.98247, 2.72536], [26.97652, 2.72182], [26.97488, 2.73307], [26.98976, 2.76894], [26.99336, 2.78589], [26.95446, 2.82149], [26.95809, 2.8471], [26.9557, 2.86373], [26.96282, 2.87502], [26.96263, 2.90142], [26.96568, 2.90642], [26.97687, 2.91006], [26.99419, 2.93081], [27.01745, 2.94683], [27.06282, 2.98698], [27.05655, 2.98998], [27.05603, 2.99422], [27.05406, 2.99204], [27.052, 2.99496], [27.04883, 2.99322], [27.04587, 2.99671], [27.04242, 2.99462], [27.0363, 2.99926], [27.02884, 2.99948], [27.02996, 3.00643], [27.02183, 3.00696], [27.01937, 3.01038], [27.01451, 3.0092], [27.01276, 3.01442], [27.00805, 3.01157], [27.00981, 3.00906], [27.00285, 3.01055], [27.00083, 3.01604], [27.00482, 3.02219], [27.0006, 3.0204], [26.99924, 3.0228], [26.99217, 3.01847], [26.98522, 3.01983], [26.98175, 3.03556], [26.97756, 3.03605], [26.97536, 3.04039], [26.96948, 3.03872], [26.97247, 3.0444], [26.97094, 3.05131], [26.96558, 3.0443], [26.94513, 3.03277], [26.92963, 3.0183], [26.91307, 3.07092], [26.92707, 3.08505], [26.92174, 3.09006], [26.92547, 3.09593], [26.92194, 3.09977], [26.91834, 3.0958], [26.91433, 3.10051], [26.9161, 3.10614], [26.90291, 3.13361], [26.90971, 3.12567], [26.92087, 3.12739], [26.92796, 3.11955], [26.94525, 3.11991], [26.94864, 3.11484], [26.9538, 3.11453], [26.95477, 3.12202], [26.96033, 3.12338], [26.9695, 3.13778], [26.98912, 3.13223], [26.99904, 3.13509], [27.00476, 3.12783], [27.01132, 3.12766], [27.01913, 3.1199], [27.0387, 3.15141], [27.04239, 3.15214], [27.04864, 3.14686], [27.04977, 3.13507], [27.05797, 3.13667], [27.0612, 3.15088], [27.07108, 3.16956], [27.08797, 3.18031], [27.10094, 3.17702], [27.11106, 3.18365], [27.11461, 3.19006], [27.11461, 3.2025], [27.12043, 3.19912], [27.13506, 3.20878], [27.14717, 3.20597], [27.16644, 3.20939], [27.17034, 3.22113], [27.16809, 3.22599], [27.18015, 3.2204], [27.19274, 3.20636], [27.20641, 3.21403], [27.21197, 3.21416], [27.21505, 3.21073], [27.23201, 3.22347], [27.24114, 3.22228], [27.24689, 3.2295], [27.26998, 3.2423], [27.28121, 3.2411], [27.28894, 3.25418], [27.30389, 3.25251], [27.31252, 3.25977], [27.31373, 3.26775], [27.32455, 3.27273], [27.32854, 3.27228], [27.33191, 3.26681], [27.3382, 3.26874], [27.34404, 3.26533], [27.34583, 3.27447], [27.33779, 3.28483], [27.35652, 3.29384], [27.36307, 3.2929], [27.35971, 3.28313], [27.36336, 3.27371], [27.37697, 3.27022], [27.38263, 3.28541], [27.378, 3.29769], [27.38047, 3.30249], [27.39313, 3.30034], [27.41406, 3.30419], [27.42596, 3.31598], [27.42492, 3.32073], [27.41971, 3.31948], [27.42605, 3.32392], [27.43309, 3.31948], [27.43426, 3.30912], [27.43143, 3.29994], [27.4357, 3.29469], [27.44436, 3.30038], [27.4493, 3.29621], [27.45161, 3.30626], [27.46468, 3.30989], [27.46993, 3.31814], [27.48665, 3.31662], [27.4886, 3.30709], [27.492, 3.30542], [27.49613, 3.30822], [27.5028, 3.30547], [27.51281, 3.31566], [27.51813, 3.31245], [27.52023, 3.30384], [27.52852, 3.31379], [27.53014, 3.30845], [27.53616, 3.30556], [27.53818, 3.27473], [27.55598, 3.27212], [27.58087, 3.27393], [27.61352, 3.27166], [27.62785, 3.29001], [27.63109, 3.30574], [27.62586, 3.31653], [27.62114, 3.31967], [27.62343, 3.32604], [27.62823, 3.32487], [27.63363, 3.31513], [27.64479, 3.31266], [27.66586, 3.32309], [27.66695, 3.31483], [27.67607, 3.30759], [27.68828, 3.30854], [27.69539, 3.31238], [27.70015, 3.30411], [27.712, 3.30871]]]}}]}